{
"type": "FeatureCollection",
"name": "H03_green_inset020",
"crs": { "type": "name", "properties": { "name": "urn:ogc:def:crs:OGC:1.3:CRS84" } },
"features": [
{ "type": "Feature", "properties": { "fid": 3, "Name": "3-green", "description": null, "timestamp": null, "begin": null, "end": null, "altitudeMode": null, "tessellate": -1, "extrude": 0, "visibility": -1, "drawOrder": null, "icon": null }, "geometry": { "type": "MultiPolygon", "coordinates": [ [ [ [ -6.076631608477809, 53.141202679848256 ], [ -6.076640232236562, 53.141207915556805 ], [ -6.076649946450416, 53.141216139085742 ], [ -6.076654142212795, 53.141227284495073 ], [ -6.07665425396157, 53.14124460521483 ], [ -6.076645037540665, 53.141259575961989 ], [ -6.076636462037623, 53.141270324794043 ], [ -6.0766198401438, 53.141284259754293 ], [ -6.076601734761425, 53.141292647211678 ], [ -6.076583896505329, 53.141300016546872 ], [ -6.076583777610006, 53.1413000682941 ], [ -6.076567632165003, 53.141307465297146 ], [ -6.076567358869817, 53.141307606973783 ], [ -6.076553409324672, 53.14131577141967 ], [ -6.076553254902485, 53.141315868832486 ], [ -6.07655311303674, 53.141315972920758 ], [ -6.076529444947655, 53.141334729222642 ], [ -6.076529354722291, 53.141334804700762 ], [ -6.076514339942083, 53.141348076585381 ], [ -6.076499959959534, 53.141360480727748 ], [ -6.076499820162605, 53.141360613306034 ], [ -6.076499700140914, 53.14136075271437 ], [ -6.076499600810298, 53.141360897888966 ], [ -6.076492534760346, 53.141372660840304 ], [ -6.076484495142776, 53.141383846236714 ], [ -6.076484413849384, 53.141383972129915 ], [ -6.076484348508454, 53.141384101338474 ], [ -6.076478091933172, 53.141398380607669 ], [ -6.076478078912243, 53.141398411429492 ], [ -6.076471155828933, 53.141415428629159 ], [ -6.076458826929226, 53.141428586877453 ], [ -6.076442675848336, 53.14143946693116 ], [ -6.076417581631842, 53.141452321829867 ], [ -6.076393951844347, 53.141458530201277 ], [ -6.076371753460837, 53.141461463622733 ], [ -6.076352791429226, 53.141462249166366 ], [ -6.07633214203873, 53.141462143309752 ], [ -6.076308868068322, 53.141457074017048 ], [ -6.076288801954579, 53.141451660228753 ], [ -6.07626691758194, 53.141443548509727 ], [ -6.076248199026559, 53.141435289155638 ], [ -6.07623624504804, 53.141427681730292 ], [ -6.076226454662806, 53.141418459284544 ], [ -6.076214441214792, 53.141406200594197 ], [ -6.076209041934407, 53.141394198835904 ], [ -6.076205255045761, 53.141382615535306 ], [ -6.076203153874587, 53.141369114320113 ], [ -6.076206196068944, 53.141358216637222 ], [ -6.076209640148568, 53.141345969519129 ], [ -6.076220314707679, 53.141334767075875 ], [ -6.076231473142195, 53.141325054222591 ], [ -6.076231604174298, 53.141324929513644 ], [ -6.076231717754969, 53.141324798762874 ], [ -6.076231813118907, 53.141324662851289 ], [ -6.076240859244993, 53.141310132278981 ], [ -6.0762409795662, 53.14130988718086 ], [ -6.076245427947453, 53.141297689431809 ], [ -6.076245478782154, 53.141297504312632 ], [ -6.076248341061572, 53.141282120979049 ], [ -6.076248357738036, 53.14128185787132 ], [ -6.076247399513132, 53.14126550962505 ], [ -6.076251834011057, 53.141250383881768 ], [ -6.076260397953685, 53.141235547545421 ], [ -6.076272613155869, 53.141222469341507 ], [ -6.076290740850233, 53.14121100317054 ], [ -6.076290827819205, 53.141210945723714 ], [ -6.076307269826194, 53.141199601908191 ], [ -6.076326291901885, 53.14119179788689 ], [ -6.076346322936805, 53.141184422989809 ], [ -6.076368642942028, 53.141178267634551 ], [ -6.076390649069164, 53.14117540524704 ], [ -6.076423326443177, 53.141173607346829 ], [ -6.076450753702107, 53.141173101124103 ], [ -6.076477987501145, 53.141173984957263 ], [ -6.076508552915599, 53.141175160858431 ], [ -6.076532110416163, 53.141176219020338 ], [ -6.076551375628497, 53.14117801633823 ], [ -6.076574352433959, 53.141182628715868 ], [ -6.076593614428479, 53.141188901105494 ], [ -6.076615763068718, 53.141197133473263 ], [ -6.076615831076215, 53.141197158006925 ], [ -6.076631608477809, 53.141202679848256 ] ] ] ] } }
]
}
