{
"type": "FeatureCollection",
"name": "H04_green_inset020",
"crs": { "type": "name", "properties": { "name": "urn:ogc:def:crs:OGC:1.3:CRS84" } },
"features": [
{ "type": "Feature", "properties": { "fid": 4, "Name": "4-green", "description": null, "timestamp": null, "begin": null, "end": null, "altitudeMode": null, "tessellate": -1, "extrude": 0, "visibility": -1, "drawOrder": null, "icon": null }, "geometry": { "type": "MultiPolygon", "coordinates": [ [ [ [ -6.073513565969751, 53.142933866239375 ], [ -6.073525987602188, 53.142944381766647 ], [ -6.073526417384421, 53.142958079654768 ], [ -6.073526420297553, 53.142958132015231 ], [ -6.073527473706348, 53.142971312794252 ], [ -6.07351876638285, 53.142986452974966 ], [ -6.07351005779349, 53.142998960962124 ], [ -6.073497166540077, 53.143013985238447 ], [ -6.073476310441928, 53.143029853086261 ], [ -6.073459807453173, 53.14304047309011 ], [ -6.073459656478825, 53.143040578096979 ], [ -6.073444191835946, 53.143052213749804 ], [ -6.073444054314083, 53.143052325871693 ], [ -6.073443931650614, 53.143052444062114 ], [ -6.073431988104246, 53.143065011872544 ], [ -6.073431919411485, 53.143065088396419 ], [ -6.07341590759958, 53.143084006868726 ], [ -6.073401947777574, 53.143096943022279 ], [ -6.073391588598769, 53.143102285505513 ], [ -6.073372059933258, 53.143109959580251 ], [ -6.073346489797427, 53.143115145541763 ], [ -6.07334627821879, 53.143115193891219 ], [ -6.073322371377619, 53.143121289496278 ], [ -6.073294642239392, 53.143125585523642 ], [ -6.07327160740351, 53.14312681165908 ], [ -6.073243364959907, 53.143127282509866 ], [ -6.073217476276442, 53.143126129995686 ], [ -6.073185349576342, 53.143120299076244 ], [ -6.073185269867551, 53.143120285331754 ], [ -6.073157114188852, 53.143115683509485 ], [ -6.07312726684365, 53.143108021931397 ], [ -6.073127086538121, 53.143107979742481 ], [ -6.073099983688863, 53.143102238152515 ], [ -6.073074029285663, 53.143092731363609 ], [ -6.073055725488995, 53.143085590751987 ], [ -6.073034696457735, 53.143073953211143 ], [ -6.073019799428557, 53.14306412484504 ], [ -6.073008478302365, 53.14305417912405 ], [ -6.072997860957136, 53.143041018872118 ], [ -6.072996601626335, 53.143031105206134 ], [ -6.07299856401662, 53.143015891234803 ], [ -6.073012333063422, 53.143001078227854 ], [ -6.07303007388289, 53.142991362631221 ], [ -6.073053785479154, 53.142984025398377 ], [ -6.073075549410816, 53.142978685097638 ], [ -6.073105884801417, 53.142972158410068 ], [ -6.073105983844224, 53.142972135903229 ], [ -6.073127873109455, 53.142966893439585 ], [ -6.07314820008677, 53.142962506650612 ], [ -6.073148356110378, 53.142962469979807 ], [ -6.073178866902795, 53.142954699429723 ], [ -6.073193740444026, 53.14295142685679 ], [ -6.073217914441217, 53.142946296229567 ], [ -6.073218218512523, 53.142946220122411 ], [ -6.073239993774926, 53.142939902258938 ], [ -6.073240121336098, 53.14293986295376 ], [ -6.073257117661524, 53.142934312562183 ], [ -6.073257401254252, 53.142934207232258 ], [ -6.073281238516992, 53.142924208303981 ], [ -6.0733095979092, 53.142912393210928 ], [ -6.07333290270799, 53.142904650734245 ], [ -6.073354984684158, 53.142900617682528 ], [ -6.073355098368086, 53.142900595416457 ], [ -6.073378990053529, 53.142895596025269 ], [ -6.073404625621281, 53.142894206419619 ], [ -6.07343090555602, 53.142895712172937 ], [ -6.073451266761539, 53.142901634461587 ], [ -6.073477051715631, 53.142909963900124 ], [ -6.073492324561322, 53.14291856930727 ], [ -6.073502977044844, 53.14292546128285 ], [ -6.073513565969751, 53.142933866239375 ] ] ] ] } }
]
}
