{
"type": "FeatureCollection",
"name": "H05_green_inset020",
"crs": { "type": "name", "properties": { "name": "urn:ogc:def:crs:OGC:1.3:CRS84" } },
"features": [
{ "type": "Feature", "properties": { "fid": 5, "Name": "5-green", "description": null, "timestamp": null, "begin": null, "end": null, "altitudeMode": null, "tessellate": -1, "extrude": 0, "visibility": -1, "drawOrder": null, "icon": null }, "geometry": { "type": "MultiPolygon", "coordinates": [ [ [ [ -6.071109051672269, 53.143235513504585 ], [ -6.071084933145193, 53.143244659633751 ], [ -6.071084734421775, 53.143244741916199 ], [ -6.071063290142037, 53.143254410890314 ], [ -6.071046394718215, 53.143260313738573 ], [ -6.071017375998179, 53.143265018736351 ], [ -6.070987787032575, 53.143260996208554 ], [ -6.070966677669449, 53.14325267927471 ], [ -6.070942378751884, 53.143239057562788 ], [ -6.070942306481965, 53.143239018352155 ], [ -6.070917445431002, 53.143225965075914 ], [ -6.070917183236082, 53.143225842170693 ], [ -6.070891972076473, 53.143215325414602 ], [ -6.070891844251038, 53.143215274955139 ], [ -6.070868217696972, 53.143206459914161 ], [ -6.070867949236046, 53.143206370879092 ], [ -6.070867667017711, 53.143206298848945 ], [ -6.070867374011665, 53.14320624458167 ], [ -6.07086707330112, 53.143206208648294 ], [ -6.070831616141541, 53.143203098353638 ], [ -6.070803639884241, 53.143200545469313 ], [ -6.070803267091724, 53.143200525700387 ], [ -6.070769233964846, 53.143200007465296 ], [ -6.070734170499854, 53.143197281415468 ], [ -6.070716094795481, 53.143194165185946 ], [ -6.070695669266335, 53.143182189846236 ], [ -6.070684195797028, 53.143167489362035 ], [ -6.070676134002019, 53.143152000132687 ], [ -6.070670469169093, 53.143133541663438 ], [ -6.070672776494388, 53.143109967721458 ], [ -6.070678367884962, 53.143090500155147 ], [ -6.070690977990004, 53.143066139449516 ], [ -6.07070602616062, 53.143051479017423 ], [ -6.070727586806134, 53.143032148501717 ], [ -6.070760281192178, 53.143015284590348 ], [ -6.070785147043441, 53.143005652221831 ], [ -6.070813438198595, 53.143000073263153 ], [ -6.070852338737867, 53.143001325458194 ], [ -6.070881928466971, 53.143005789888164 ], [ -6.070910243158509, 53.143013660663769 ], [ -6.070940378611155, 53.14302741607861 ], [ -6.070960114147857, 53.143044232563078 ], [ -6.070960275050963, 53.143044357605071 ], [ -6.070960453609289, 53.143044473660019 ], [ -6.070975469544843, 53.14305341045786 ], [ -6.070995002805166, 53.143077554608077 ], [ -6.070995209087537, 53.143077770228068 ], [ -6.071011451586756, 53.143092316130563 ], [ -6.071011600890475, 53.143092438359218 ], [ -6.07101176680216, 53.143092552583596 ], [ -6.071011948140268, 53.143092657990231 ], [ -6.071037622009194, 53.143106369715994 ], [ -6.071061785372984, 53.143122968403055 ], [ -6.07106198909352, 53.143123095214435 ], [ -6.071085759254193, 53.143136507670285 ], [ -6.071111583570504, 53.143153837037367 ], [ -6.071123199825919, 53.143163111529141 ], [ -6.071136888227904, 53.143174021941768 ], [ -6.071144338776784, 53.143188009971354 ], [ -6.071138442244093, 53.143206647955111 ], [ -6.071126791252621, 53.143222571142921 ], [ -6.071109051672269, 53.143235513504585 ] ] ] ] } }
]
}
