{
"type": "FeatureCollection",
"name": "H06_green_inset020",
"crs": { "type": "name", "properties": { "name": "urn:ogc:def:crs:OGC:1.3:CRS84" } },
"features": [
{ "type": "Feature", "properties": { "fid": 6, "Name": "6-green", "description": null, "timestamp": null, "begin": null, "end": null, "altitudeMode": null, "tessellate": -1, "extrude": 0, "visibility": -1, "drawOrder": null, "icon": null }, "geometry": { "type": "MultiPolygon", "coordinates": [ [ [ [ -6.07530904708582, 53.141044200163812 ], [ -6.07530752643401, 53.141054030732079 ], [ -6.075303684718632, 53.141068298274625 ], [ -6.075296146241606, 53.141083188053017 ], [ -6.075290494131035, 53.141093714351022 ], [ -6.075282405637592, 53.141105050854122 ], [ -6.075274368215198, 53.14111439066729 ], [ -6.075261896834093, 53.141123944892193 ], [ -6.075250477062426, 53.141130108554229 ], [ -6.075232398442537, 53.141136410056141 ], [ -6.075216642462737, 53.141141298235738 ], [ -6.075194217595952, 53.14114724425913 ], [ -6.075171176528361, 53.141151758955694 ], [ -6.075171001824656, 53.14115179683651 ], [ -6.075147001882268, 53.141157513386901 ], [ -6.075146775464782, 53.141157573962367 ], [ -6.075130254712287, 53.141162497007834 ], [ -6.075105950639794, 53.141167516947512 ], [ -6.075083115014776, 53.141169579488441 ], [ -6.075057610408618, 53.141169937893217 ], [ -6.075036540145782, 53.141168428652342 ], [ -6.075020605709994, 53.141164185009089 ], [ -6.075000876512195, 53.141155914890376 ], [ -6.074983854039679, 53.141145725907322 ], [ -6.074974851471612, 53.141137497372931 ], [ -6.074968729065955, 53.141127166387072 ], [ -6.074963627915773, 53.141116571828086 ], [ -6.074960813906236, 53.14110544275826 ], [ -6.074960654569266, 53.141091033954247 ], [ -6.074962466687719, 53.141077846247804 ], [ -6.0749667326596, 53.14106593530996 ], [ -6.074971812687035, 53.141053752599753 ], [ -6.074982205126769, 53.141039961435297 ], [ -6.074996233485951, 53.141027491655322 ], [ -6.075011896808124, 53.141017042512694 ], [ -6.075029226871488, 53.141006565158555 ], [ -6.075048320981224, 53.140996947083146 ], [ -6.075065707392023, 53.140988612239575 ], [ -6.075065838181911, 53.140988545767364 ], [ -6.075080643112752, 53.140980573057462 ], [ -6.075100065307336, 53.140972211166506 ], [ -6.075120273583719, 53.14096551746777 ], [ -6.075138305111579, 53.140960617707997 ], [ -6.075138315747897, 53.140960614802687 ], [ -6.075156289143058, 53.140955679872718 ], [ -6.075180466237824, 53.140953217824595 ], [ -6.075201694469344, 53.140953895902285 ], [ -6.075225444362002, 53.140957661969843 ], [ -6.075242165135961, 53.140961782223073 ], [ -6.075258868875128, 53.140968080379267 ], [ -6.075273259630201, 53.140976354032603 ], [ -6.0752875196434, 53.14098564926131 ], [ -6.07529943924138, 53.140997912293706 ], [ -6.075303970306802, 53.141007685954612 ], [ -6.075309934050469, 53.141020705055155 ], [ -6.075310454412274, 53.141034081335356 ], [ -6.07530904708582, 53.141044200163812 ] ] ] ] } }
]
}
