{
"type": "FeatureCollection",
"name": "H07_green_inset020",
"crs": { "type": "name", "properties": { "name": "urn:ogc:def:crs:OGC:1.3:CRS84" } },
"features": [
{ "type": "Feature", "properties": { "fid": 7, "Name": "7-green", "description": null, "timestamp": null, "begin": null, "end": null, "altitudeMode": null, "tessellate": -1, "extrude": 0, "visibility": -1, "drawOrder": null, "icon": null }, "geometry": { "type": "MultiPolygon", "coordinates": [ [ [ [ -6.072421223298793, 53.142032090142003 ], [ -6.072405737633448, 53.142036130996843 ], [ -6.072376373517542, 53.14204134672098 ], [ -6.072350373515969, 53.142041064233524 ], [ -6.072329037629188, 53.14203640277421 ], [ -6.072308269679297, 53.142031408931217 ], [ -6.072282395021187, 53.142019855674121 ], [ -6.072261765347309, 53.142006466110189 ], [ -6.07224666522844, 53.141995795846483 ], [ -6.072227890928422, 53.14198036629783 ], [ -6.072212371754664, 53.141967225690252 ], [ -6.072196240794811, 53.141953447759619 ], [ -6.07218347269703, 53.141940248905307 ], [ -6.072174597157085, 53.141928067896984 ], [ -6.072169856582234, 53.141916700917456 ], [ -6.072170469563468, 53.141902969983306 ], [ -6.072174440396062, 53.14189016983817 ], [ -6.072185137049805, 53.141878234728452 ], [ -6.072198228115577, 53.141864758411835 ], [ -6.072211991642778, 53.141856054353276 ], [ -6.072212201161273, 53.141855906634206 ], [ -6.072224459684292, 53.141846252797059 ], [ -6.072224491929186, 53.14184622692428 ], [ -6.072235854722423, 53.14183693661581 ], [ -6.072236027753848, 53.141836778288258 ], [ -6.072236172103215, 53.14183660988737 ], [ -6.072236286166236, 53.141836433284752 ], [ -6.072243549686469, 53.141823151478832 ], [ -6.072243617634128, 53.141823007206227 ], [ -6.072243665342566, 53.141822860029805 ], [ -6.072247444255704, 53.141807903413806 ], [ -6.072253605488452, 53.141792917706269 ], [ -6.07226171860293, 53.141780349276445 ], [ -6.072270290107748, 53.141769200839207 ], [ -6.072285286380617, 53.141757330357251 ], [ -6.072301876992702, 53.14174948557055 ], [ -6.072320884674591, 53.141744093533909 ], [ -6.072347609341284, 53.141739109340214 ], [ -6.072369859157251, 53.141735826644357 ], [ -6.072370108751473, 53.141735782816745 ], [ -6.072395509976158, 53.141730591425677 ], [ -6.072429433747613, 53.14172666872016 ], [ -6.072449352684849, 53.141725362257731 ], [ -6.072475332474464, 53.141727071656447 ], [ -6.072498302627491, 53.141732376669921 ], [ -6.072517892041806, 53.14174102933729 ], [ -6.072528447825548, 53.141754143559517 ], [ -6.072536212862798, 53.141767618008956 ], [ -6.072539164021179, 53.141781410164576 ], [ -6.072538114134423, 53.141793783514672 ], [ -6.072529695715317, 53.141808236618409 ], [ -6.072515817065408, 53.141824279742664 ], [ -6.072500961286393, 53.141838991340663 ], [ -6.072500843680188, 53.14183911925803 ], [ -6.072490725822011, 53.141851266097483 ], [ -6.072490591970247, 53.141851452373736 ], [ -6.072490493896838, 53.141851646535919 ], [ -6.072484956666955, 53.141865348308471 ], [ -6.072477511760605, 53.141878383089733 ], [ -6.072477430309781, 53.14187855226762 ], [ -6.072477376791733, 53.141878725427141 ], [ -6.072477351720508, 53.141878900905077 ], [ -6.072476432162873, 53.141893970062938 ], [ -6.072476433962047, 53.141894126657881 ], [ -6.072477652854818, 53.141908629522206 ], [ -6.072477665180236, 53.141908725301121 ], [ -6.072479894529405, 53.141921573659779 ], [ -6.072481340847676, 53.141935814334978 ], [ -6.072481342013447, 53.141935825265705 ], [ -6.072482847209043, 53.141949295685393 ], [ -6.072482881403974, 53.141949471565098 ], [ -6.072486219164345, 53.141961475181027 ], [ -6.072484861642172, 53.141974374914611 ], [ -6.07248168625052, 53.141985122672729 ], [ -6.072471268718895, 53.141999966633769 ], [ -6.072456040267459, 53.142013477520905 ], [ -6.072441996511939, 53.142023325084551 ], [ -6.072421223298793, 53.142032090142003 ] ] ] ] } }
]
}
