{
"type": "FeatureCollection",
"name": "H09_green_inset020",
"crs": { "type": "name", "properties": { "name": "urn:ogc:def:crs:OGC:1.3:CRS84" } },
"features": [
{ "type": "Feature", "properties": { "fid": 9, "Name": "9-green", "description": null, "timestamp": null, "begin": null, "end": null, "altitudeMode": null, "tessellate": -1, "extrude": 0, "visibility": -1, "drawOrder": null, "icon": null }, "geometry": { "type": "MultiPolygon", "coordinates": [ [ [ [ -6.073012404287294, 53.141030277075608 ], [ -6.073014209748228, 53.141041362962874 ], [ -6.073011846263149, 53.141051735609636 ], [ -6.073007647447055, 53.141066539373611 ], [ -6.072996258211646, 53.141081827424756 ], [ -6.072986412786696, 53.141093303641064 ], [ -6.072973667350162, 53.141105696171195 ], [ -6.072959789092345, 53.141116722748613 ], [ -6.072940085903553, 53.141128766538849 ], [ -6.072922923644424, 53.141135954342005 ], [ -6.072901232711756, 53.141142216682567 ], [ -6.07287113925432, 53.141149146953715 ], [ -6.072844520185407, 53.141155037994039 ], [ -6.07282330206885, 53.141159012893951 ], [ -6.072795566437077, 53.141163430213496 ], [ -6.072772740836721, 53.141165976560721 ], [ -6.072745034611396, 53.14116679415622 ], [ -6.072713915559087, 53.141165105296572 ], [ -6.072683877192302, 53.141161942217309 ], [ -6.072657133064098, 53.14115613278031 ], [ -6.072638173085855, 53.141149869650498 ], [ -6.072612885524271, 53.141139404929916 ], [ -6.072599984288984, 53.141131210135889 ], [ -6.072592727584437, 53.141123839780597 ], [ -6.072586603603768, 53.141114480756606 ], [ -6.072580738456511, 53.141104354279328 ], [ -6.072580840765762, 53.141091345157655 ], [ -6.072583008675039, 53.14108076005283 ], [ -6.072590455688752, 53.14106564869072 ], [ -6.072600896028155, 53.141054476604175 ], [ -6.072619559074705, 53.141042062955464 ], [ -6.072619642014502, 53.141042005381166 ], [ -6.072630406420563, 53.141034204962388 ], [ -6.072651347951314, 53.141020677128019 ], [ -6.072663645363715, 53.141013931652147 ], [ -6.072683202705153, 53.1410041750351 ], [ -6.072683277364996, 53.141004136524593 ], [ -6.072697583674261, 53.14099650785144 ], [ -6.072712956005267, 53.140990861549881 ], [ -6.072732094093777, 53.140984044743547 ], [ -6.072748234168625, 53.140980081716272 ], [ -6.072769220597255, 53.140975105712904 ], [ -6.072788881490428, 53.140971780950231 ], [ -6.072808980202552, 53.14096930507354 ], [ -6.072832864104471, 53.140967520952714 ], [ -6.072858278748845, 53.140968416231935 ], [ -6.072881093592049, 53.140970800807601 ], [ -6.072904730490198, 53.140974206929741 ], [ -6.072922725889372, 53.140979261328745 ], [ -6.07294576739889, 53.140985940729422 ], [ -6.072959691875718, 53.140990937251175 ], [ -6.072959698678497, 53.140990939684876 ], [ -6.072975866494253, 53.140996706316983 ], [ -6.07298799405369, 53.141002718062666 ], [ -6.072998377584754, 53.14101046534212 ], [ -6.073008683408311, 53.141022294492373 ], [ -6.073012404287294, 53.141030277075608 ] ] ] ] } }
]
}
