{
"type": "FeatureCollection",
"name": "H13_green_inset020",
"crs": { "type": "name", "properties": { "name": "urn:ogc:def:crs:OGC:1.3:CRS84" } },
"features": [
{ "type": "Feature", "properties": { "fid": 13, "Name": "13-green", "description": null, "timestamp": null, "begin": null, "end": null, "altitudeMode": null, "tessellate": -1, "extrude": 0, "visibility": -1, "drawOrder": null, "icon": null }, "geometry": { "type": "MultiPolygon", "coordinates": [ [ [ [ -6.072694237945858, 53.135605343247605 ], [ -6.072708113135299, 53.135594974578929 ], [ -6.072727729608555, 53.135586288150819 ], [ -6.072748465853115, 53.135579361807913 ], [ -6.072770062812882, 53.135577734161778 ], [ -6.072793895781262, 53.135578405644559 ], [ -6.072816209794953, 53.135580231555423 ], [ -6.072837404861017, 53.135585265550546 ], [ -6.072854910705339, 53.135594271167172 ], [ -6.072869461215766, 53.135607574142682 ], [ -6.072878689889682, 53.135618505692413 ], [ -6.072878840610129, 53.135618663808849 ], [ -6.072893221510774, 53.135632119487681 ], [ -6.072904953511555, 53.135643550248965 ], [ -6.072905075784252, 53.135643660122888 ], [ -6.072919573971155, 53.135655704742057 ], [ -6.072933789828876, 53.135668393755068 ], [ -6.072933902453681, 53.135668487612683 ], [ -6.072948951896968, 53.135680214112341 ], [ -6.07294910641296, 53.135680324981394 ], [ -6.072964388413298, 53.135690434141189 ], [ -6.072978252293861, 53.135700378728139 ], [ -6.072978344394316, 53.135700441743751 ], [ -6.072990204010488, 53.135708183955607 ], [ -6.072999452300714, 53.135718791948698 ], [ -6.073006089624755, 53.135726572337902 ], [ -6.073008993838382, 53.135735349265822 ], [ -6.073004180279381, 53.135748438599514 ], [ -6.072999974681081, 53.135758180349157 ], [ -6.072988237968099, 53.13577178250268 ], [ -6.072988174053887, 53.135771861210038 ], [ -6.072980322644303, 53.135782159004549 ], [ -6.072980213830975, 53.135782322404403 ], [ -6.072980132120394, 53.135782491422113 ], [ -6.072975723417813, 53.135793617119489 ], [ -6.072970327620815, 53.135805159304404 ], [ -6.072970266831534, 53.135805315933318 ], [ -6.072965883392698, 53.135819438834602 ], [ -6.072956564422619, 53.135832667299802 ], [ -6.072941440167914, 53.135843609320588 ], [ -6.072924642065394, 53.135851249208024 ], [ -6.072910859564908, 53.135853841095518 ], [ -6.072881339122739, 53.135854903438513 ], [ -6.072862610377102, 53.13585123955869 ], [ -6.072846901073969, 53.135845748085984 ], [ -6.072835584564408, 53.13583587771253 ], [ -6.072828178554517, 53.13582858322745 ], [ -6.072825063616071, 53.135820060879908 ], [ -6.072824977920078, 53.135819874757367 ], [ -6.072824859506759, 53.135819695239917 ], [ -6.072816996151751, 53.135809422230075 ], [ -6.072816935092169, 53.135809347111184 ], [ -6.072809431575, 53.135800635575201 ], [ -6.072809391839676, 53.135800590990605 ], [ -6.072798515494511, 53.135788789297358 ], [ -6.072792454338408, 53.135781820415517 ], [ -6.072792318254443, 53.135781679835702 ], [ -6.072792161590185, 53.135781547231844 ], [ -6.072791985629222, 53.135781423690403 ], [ -6.072775332825695, 53.135770750084355 ], [ -6.072775131068553, 53.135770632387157 ], [ -6.072763874691544, 53.135764657473189 ], [ -6.072763668164319, 53.13576455729676 ], [ -6.072763447675056, 53.135764468532265 ], [ -6.072747843400979, 53.135758773024911 ], [ -6.072726627247506, 53.135749291627498 ], [ -6.07272644656594, 53.135749216909559 ], [ -6.072708115020376, 53.135742217643362 ], [ -6.072692996842108, 53.135733410791005 ], [ -6.072680771514304, 53.135723948670289 ], [ -6.072670697519911, 53.13571098739137 ], [ -6.072664467612637, 53.135699104251721 ], [ -6.072662001238707, 53.135684013662221 ], [ -6.072662163057528, 53.135667938781424 ], [ -6.072666605603585, 53.135649315771317 ], [ -6.072674663840659, 53.135629784070687 ], [ -6.072687719712953, 53.13561291792314 ], [ -6.072694237945858, 53.135605343247605 ] ] ] ] } }
]
}
