{
"type": "FeatureCollection",
"name": "H16_green_inset020",
"crs": { "type": "name", "properties": { "name": "urn:ogc:def:crs:OGC:1.3:CRS84" } },
"features": [
{ "type": "Feature", "properties": { "fid": 16, "Name": "16-green", "description": null, "timestamp": null, "begin": null, "end": null, "altitudeMode": null, "tessellate": -1, "extrude": 0, "visibility": -1, "drawOrder": null, "icon": null }, "geometry": { "type": "MultiPolygon", "coordinates": [ [ [ [ -6.073420859463268, 53.132973707015978 ], [ -6.073432923364993, 53.132986681581436 ], [ -6.073439670836036, 53.133000905877715 ], [ -6.073439674765438, 53.133000914087241 ], [ -6.07344559569093, 53.133013174712914 ], [ -6.073448642938817, 53.13303238659843 ], [ -6.07344628352717, 53.133049627975616 ], [ -6.073446276072411, 53.133049700226493 ], [ -6.073444970419734, 53.133068460739345 ], [ -6.073440449230717, 53.133080906276582 ], [ -6.073434974478809, 53.13309571018705 ], [ -6.073424761887344, 53.133111348617092 ], [ -6.073413334902402, 53.133124096538481 ], [ -6.073395543086996, 53.133140396548107 ], [ -6.073377788662158, 53.133146786543193 ], [ -6.07335461606469, 53.13315419593485 ], [ -6.073335482482804, 53.133155004235505 ], [ -6.073312873472531, 53.133154580462957 ], [ -6.073296074600164, 53.13315354108817 ], [ -6.073275438993443, 53.133149378635331 ], [ -6.073275066756453, 53.133149319291398 ], [ -6.07325874004609, 53.133147383574368 ], [ -6.073235311146058, 53.133144536817397 ], [ -6.073215473960925, 53.133142121616757 ], [ -6.073215191709816, 53.133142095623874 ], [ -6.07321490662208, 53.133142085952279 ], [ -6.073214621301019, 53.133142092690306 ], [ -6.073179780276515, 53.133143921222789 ], [ -6.073179389797672, 53.133143957485601 ], [ -6.0731510521456, 53.133147757222737 ], [ -6.073128561816903, 53.133149602935475 ], [ -6.073099621751121, 53.133146788011331 ], [ -6.0730850544104, 53.133142302247876 ], [ -6.073069370240381, 53.133136784306636 ], [ -6.073056700875635, 53.133129741766233 ], [ -6.073050648031867, 53.133120234395058 ], [ -6.073052089673054, 53.13310697303659 ], [ -6.07306067419679, 53.133089957068435 ], [ -6.073073524057167, 53.133075206504671 ], [ -6.073087475604249, 53.133062299723726 ], [ -6.073105532437609, 53.133048619240839 ], [ -6.073118891691887, 53.133041049941411 ], [ -6.073119073416792, 53.133040937585307 ], [ -6.073119238171309, 53.133040816133075 ], [ -6.073119384702059, 53.133040686508686 ], [ -6.07312891093044, 53.133031413922268 ], [ -6.073129101920582, 53.133031195864405 ], [ -6.073139469920611, 53.133017089173343 ], [ -6.073139593497531, 53.13301688990714 ], [ -6.073139677066806, 53.133016683256272 ], [ -6.073143926626335, 53.133002588094683 ], [ -6.073143948910597, 53.133002502466624 ], [ -6.073146066665442, 53.132992845993485 ], [ -6.07315321374963, 53.132976124303191 ], [ -6.073163146683233, 53.132965597727484 ], [ -6.073175772902111, 53.132954213883444 ], [ -6.073195262000183, 53.132942502717896 ], [ -6.073215263561497, 53.132934486191651 ], [ -6.073231888113473, 53.132929086365543 ], [ -6.073252518986354, 53.13292541810484 ], [ -6.073272698013705, 53.132923770805213 ], [ -6.073296577741424, 53.13292543443211 ], [ -6.07332246617609, 53.132929398269383 ], [ -6.073346791571526, 53.13293541492132 ], [ -6.073360938736034, 53.132940219415353 ], [ -6.073361019252975, 53.132940245788085 ], [ -6.073378959956631, 53.132945909253209 ], [ -6.0733926431371, 53.132953229741034 ], [ -6.073406512955036, 53.132961335795571 ], [ -6.073420859463268, 53.132973707015978 ] ] ] ] } }
]
}
