{
"type": "FeatureCollection",
"name": "H18_green_inset020",
"crs": { "type": "name", "properties": { "name": "urn:ogc:def:crs:OGC:1.3:CRS84" } },
"features": [
{ "type": "Feature", "properties": { "fid": 18, "Name": "18-green", "description": null, "timestamp": null, "begin": null, "end": null, "altitudeMode": null, "tessellate": -1, "extrude": 0, "visibility": -1, "drawOrder": null, "icon": null }, "geometry": { "type": "MultiPolygon", "coordinates": [ [ [ [ -6.071052505854083, 53.138455366302139 ], [ -6.071062326703796, 53.138464063736961 ], [ -6.071073678822025, 53.138476706560702 ], [ -6.071083897151106, 53.138491423202964 ], [ -6.07108496873978, 53.138506293913927 ], [ -6.071085331428996, 53.138519195988522 ], [ -6.071081760415098, 53.138530771552631 ], [ -6.071071599763261, 53.138546336302838 ], [ -6.071061188494772, 53.13855969528263 ], [ -6.071041583257461, 53.138575437152156 ], [ -6.071022999096961, 53.138586954547982 ], [ -6.071001516357543, 53.138597936564587 ], [ -6.07097960418928, 53.138607362512175 ], [ -6.070956820114507, 53.13861494661684 ], [ -6.070935280766645, 53.13862196431775 ], [ -6.07091290006186, 53.138625596599141 ], [ -6.070889177276837, 53.138629008871582 ], [ -6.070870291954039, 53.138628873150275 ], [ -6.070853508066515, 53.138626404209759 ], [ -6.070838076449377, 53.138622435065678 ], [ -6.070819445092684, 53.138615200383377 ], [ -6.070798386911754, 53.138604851292662 ], [ -6.070783233519569, 53.1385963465207 ], [ -6.070766324883001, 53.138584455625491 ], [ -6.070755786810253, 53.138575840535403 ], [ -6.070744160975106, 53.138566311922666 ], [ -6.070743986290515, 53.138566181892266 ], [ -6.070733721141271, 53.138559228919817 ], [ -6.070733648563349, 53.138559181500625 ], [ -6.070715039869443, 53.138547452621822 ], [ -6.070714959878217, 53.138547404086175 ], [ -6.070692847408569, 53.138534487758868 ], [ -6.07069263371282, 53.138534374330568 ], [ -6.070677350781414, 53.138527011319994 ], [ -6.070677245554629, 53.138526962887553 ], [ -6.070654088017805, 53.138516785781853 ], [ -6.070635359481939, 53.138504964926476 ], [ -6.070617189443102, 53.138492290437206 ], [ -6.070606082328704, 53.13848230310353 ], [ -6.070603402389663, 53.138473952156808 ], [ -6.070600271951072, 53.138462924674371 ], [ -6.070600942100939, 53.138452048387251 ], [ -6.070600943588886, 53.13845194701954 ], [ -6.070600488188131, 53.138437819433811 ], [ -6.070606124450688, 53.138424287678106 ], [ -6.070617015668838, 53.138408706325265 ], [ -6.070630239976204, 53.138394103151775 ], [ -6.070645163016409, 53.138383999854483 ], [ -6.07066168799572, 53.13837710966164 ], [ -6.070679165716113, 53.138371679649062 ], [ -6.070702989624855, 53.138368136689536 ], [ -6.070722773670231, 53.138367612683062 ], [ -6.070741498756971, 53.138368497801302 ], [ -6.070759574673962, 53.138369871596446 ], [ -6.07078556460029, 53.138373876669107 ], [ -6.070804445968249, 53.138380661762888 ], [ -6.070825563808222, 53.138392712206794 ], [ -6.070825737761912, 53.138392804038148 ], [ -6.070825923013353, 53.138392887497801 ], [ -6.070841364665544, 53.138399298250299 ], [ -6.070863917833932, 53.138409291778437 ], [ -6.070864100477926, 53.138409366605636 ], [ -6.070864291818393, 53.138409433111541 ], [ -6.070880994459585, 53.138414753172427 ], [ -6.070881277406033, 53.138414832213542 ], [ -6.070881572514026, 53.138414893085361 ], [ -6.070895730473889, 53.138417324831941 ], [ -6.070895907337076, 53.138417351727341 ], [ -6.070924366751249, 53.138421127759472 ], [ -6.070924793162567, 53.138421165203191 ], [ -6.070943412675759, 53.138421982203113 ], [ -6.070971371948297, 53.138426211081871 ], [ -6.071000130326111, 53.138432605183922 ], [ -6.071023061581787, 53.138440971691523 ], [ -6.071038458744824, 53.138447744861971 ], [ -6.071052505854083, 53.138455366302139 ] ] ] ] } }
]
}
