{
"type": "FeatureCollection",
"name": "H01_green_inset_0p05m",
"crs": { "type": "name", "properties": { "name": "urn:ogc:def:crs:OGC:1.3:CRS84" } },
"features": [
{ "type": "Feature", "properties": { "fid": 1, "id": "03A570FDFE3DC0D29DBC", "Name": "1-green", "description": null, "timestamp": null, "begin": null, "end": null, "altitudeMode": null, "tessellate": -1, "extrude": 0, "visibility": -1, "drawOrder": null, "icon": null }, "geometry": { "type": "MultiPolygon", "coordinates": [ [ [ [ -6.076613952935435, 53.140477706926099 ], [ -6.076614052935366, 53.140481606926116 ], [ -6.076614053201549, 53.140481613847314 ], [ -6.076614253220395, 53.140485514211342 ], [ -6.07661445321073, 53.140489314028976 ], [ -6.076614653023912, 53.140493210387319 ], [ -6.076614752935096, 53.140497106926105 ], [ -6.076614753534513, 53.140497119278692 ], [ -6.076615053305222, 53.14050131606966 ], [ -6.076615253152265, 53.14050551285905 ], [ -6.076615253568298, 53.140505519748018 ], [ -6.076615551748862, 53.140509594883383 ], [ -6.076615154980709, 53.140513165796207 ], [ -6.076614655587441, 53.140516661548645 ], [ -6.076614654603989, 53.14051666919827 ], [ -6.076614255041337, 53.140520165370965 ], [ -6.076613762890734, 53.140523610424772 ], [ -6.076611689176783, 53.140527461607697 ], [ -6.076611687505773, 53.140527464750335 ], [ -6.076609588331603, 53.140531463177197 ], [ -6.076607489176627, 53.14053536160776 ], [ -6.076605421281165, 53.140539201984929 ], [ -6.076601579295047, 53.140542649921137 ], [ -6.07659768456933, 53.14054614518777 ], [ -6.076593727679697, 53.140549508543927 ], [ -6.076588578309113, 53.140552578360975 ], [ -6.076583382727084, 53.140555575812137 ], [ -6.076578182727028, 53.140558575812143 ], [ -6.076573068321739, 53.14056152643056 ], [ -6.076566982537403, 53.140563293271164 ], [ -6.076560790008833, 53.140564991222547 ], [ -6.076560775142703, 53.140564995418011 ], [ -6.076554575142679, 53.140566795418017 ], [ -6.076548435665999, 53.140568577846722 ], [ -6.07654250043261, 53.140569567052282 ], [ -6.076536500432601, 53.140570567052279 ], [ -6.076530500432595, 53.140571567052298 ], [ -6.076524558144698, 53.1405725574336 ], [ -6.07651862836628, 53.140572952752159 ], [ -6.076512539094455, 53.140573252224563 ], [ -6.076512538086211, 53.14057325227455 ], [ -6.07650653808621, 53.140573552274567 ], [ -6.076500538086274, 53.140573852274564 ], [ -6.076500517667859, 53.140573853465412 ], [ -6.076494623245613, 53.140574246426894 ], [ -6.076488027902276, 53.140573557361158 ], [ -6.076488010059126, 53.140573555630368 ], [ -6.076481310059123, 53.140572955630368 ], [ -6.07647461005912, 53.140572355630368 ], [ -6.076467910059187, 53.140571755630376 ], [ -6.076467908474963, 53.140571755489553 ], [ -6.076461243175371, 53.140571167374887 ], [ -6.076455062246703, 53.140569107065325 ], [ -6.076455057893145, 53.140569105625509 ], [ -6.076448657893114, 53.140567005625499 ], [ -6.076442257893079, 53.140564905625496 ], [ -6.076435891767948, 53.140562816740697 ], [ -6.076430123558156, 53.140560429895274 ], [ -6.076430118646296, 53.140560427880047 ], [ -6.076424218646255, 53.14055802788004 ], [ -6.076418321108846, 53.140555628881778 ], [ -6.076412610351338, 53.140553265809736 ], [ -6.076408577244024, 53.140550314755615 ], [ -6.076408569250984, 53.140550309005491 ], [ -6.076404469250928, 53.140547409005485 ], [ -6.076400376211152, 53.140544513928603 ], [ -6.076396399340958, 53.140541531275993 ], [ -6.076392616914966, 53.140538246537659 ], [ -6.076388919509068, 53.140534948851354 ], [ -6.076388914273169, 53.140534944243505 ], [ -6.076385116914908, 53.140531646537703 ], [ -6.076381419508941, 53.140528348851348 ], [ -6.076381414273044, 53.140528344243499 ], [ -6.076377614273021, 53.140525044243503 ], [ -6.076377547311904, 53.140524994165276 ], [ -6.076372449821128, 53.140521695788919 ], [ -6.076367452303593, 53.140518397427371 ], [ -6.076367439435495, 53.140518389146685 ], [ -6.07636234340567, 53.140515191637796 ], [ -6.076357249820949, 53.140511895788883 ], [ -6.076352252303407, 53.140508597427328 ], [ -6.07635215396775, 53.140508543168508 ], [ -6.076347153967713, 53.140506243168531 ], [ -6.076342153967672, 53.140503943168525 ], [ -6.076337153967629, 53.140501643168513 ], [ -6.076332153967592, 53.1404993431685 ], [ -6.076327153967608, 53.140497043168509 ], [ -6.076326982526116, 53.140496984087797 ], [ -6.076321282526162, 53.140495584087816 ], [ -6.076321278336057, 53.140495583067555 ], [ -6.076315480433851, 53.140494183573914 ], [ -6.076309782526068, 53.140492784087819 ], [ -6.076304082526113, 53.140491384087817 ], [ -6.076303980839798, 53.140491364087694 ], [ -6.076297980839797, 53.140490464087712 ], [ -6.076291990235211, 53.140489565496999 ], [ -6.076285999566653, 53.140488567052252 ], [ -6.076285980839779, 53.140488564087697 ], [ -6.076279980839836, 53.140487664087694 ], [ -6.076279952066963, 53.140487660133047 ], [ -6.076273561129126, 53.140486861265828 ], [ -6.07626717014183, 53.140485962533241 ], [ -6.076260770141825, 53.140485062533251 ], [ -6.076254457048686, 53.140484174754526 ], [ -6.076248936722731, 53.140482498941289 ], [ -6.076248920655615, 53.140482494208072 ], [ -6.07624332873626, 53.14048089651682 ], [ -6.076237739153036, 53.140479199679056 ], [ -6.076232241574396, 53.140477500427494 ], [ -6.076232236722596, 53.140477498941259 ], [ -6.076226718756613, 53.140475823844461 ], [ -6.076221588309831, 53.140473159958624 ], [ -6.076216388309783, 53.140470459958628 ], [ -6.076211188309733, 53.140467759958632 ], [ -6.076206055354715, 53.140465094770462 ], [ -6.076202407003755, 53.140462038044021 ], [ -6.076198707003698, 53.140458938043999 ], [ -6.076195009818108, 53.140455840402062 ], [ -6.076191432826249, 53.140452760214636 ], [ -6.076188252725822, 53.140449381357996 ], [ -6.076185155149687, 53.140445984016488 ], [ -6.076182055149626, 53.140442584016498 ], [ -6.076178955149562, 53.140439184016479 ], [ -6.076175855149524, 53.140435784016489 ], [ -6.076175850242093, 53.140435778719258 ], [ -6.076172652725498, 53.14043238135794 ], [ -6.076169555149368, 53.140428984016438 ], [ -6.076166519081287, 53.140425654135377 ], [ -6.076165438850527, 53.140421333212622 ], [ -6.076164339759728, 53.140416936849732 ], [ -6.076163347918757, 53.140412473565725 ], [ -6.07616344706768, 53.14040860675302 ], [ -6.076163547065471, 53.140404606838615 ], [ -6.076163646481123, 53.140400729625526 ], [ -6.076164342096635, 53.140397152174017 ], [ -6.076165042096572, 53.140393552174004 ], [ -6.076165742096508, 53.140389952174026 ], [ -6.076166431234712, 53.140386408034367 ], [ -6.076168497808611, 53.140383160561015 ], [ -6.076168500405805, 53.140383156418686 ], [ -6.076170598396022, 53.140379759672527 ], [ -6.076172796302885, 53.14037636290729 ], [ -6.076172800405683, 53.140376356418699 ], [ -6.07617488173022, 53.14037298665508 ], [ -6.076177755827886, 53.140369815236909 ], [ -6.076180753252189, 53.140366518070117 ], [ -6.076183750856607, 53.140363320625355 ], [ -6.076183755591966, 53.140363315496316 ], [ -6.076186755591932, 53.140360015496292 ], [ -6.076186756063031, 53.140360014977276 ], [ -6.076189627850438, 53.140356846108375 ], [ -6.076193691866589, 53.140353674193285 ], [ -6.076197707795309, 53.140350539809887 ], [ -6.076203290336719, 53.14034848308409 ], [ -6.076203295367533, 53.140348481214119 ], [ -6.076208895367563, 53.140346381214108 ], [ -6.076208908653302, 53.140346376114131 ], [ -6.076214502055151, 53.14034417870625 ], [ -6.076220092858181, 53.140342082155108 ], [ -6.076225680458594, 53.140340023565471 ], [ -6.076231854377401, 53.140339239575788 ], [ -6.076238154377389, 53.140338439575778 ], [ -6.076244454377385, 53.140337639575776 ], [ -6.076250708073034, 53.140336845455693 ], [ -6.076256750800976, 53.140336548272359 ], [ -6.076262840678455, 53.140336348604229 ], [ -6.076262860904871, 53.140336347775438 ], [ -6.076268950474495, 53.140336048288411 ], [ -6.076275080030773, 53.14033585056081 ], [ -6.076281220293956, 53.140336246706809 ], [ -6.076281239095066, 53.140336247775444 ], [ -6.076287329683281, 53.140336547312572 ], [ -6.076293520293885, 53.140336946706796 ], [ -6.076299587449943, 53.140337338136234 ], [ -6.076306167778214, 53.140339302413331 ], [ -6.076306181302481, 53.140339306348999 ], [ -6.076312881302457, 53.140341206348999 ], [ -6.076319574507416, 53.140343104422044 ], [ -6.076326255045836, 53.140345098612627 ], [ -6.076332035396963, 53.140346992175942 ], [ -6.076337828317636, 53.14034898973479 ], [ -6.076337837756596, 53.140348992935145 ], [ -6.076343533017853, 53.14035089135556 ], [ -6.076349328776312, 53.140352889892839 ], [ -6.076355428776346, 53.140354989892863 ], [ -6.076355433312642, 53.140354991441939 ], [ -6.07636163331261, 53.140357091441921 ], [ -6.076367831039814, 53.140359190672093 ], [ -6.076373928776253, 53.140361289892851 ], [ -6.076373933312547, 53.140361291441906 ], [ -6.076380133312583, 53.140363391441923 ], [ -6.076380179345938, 53.140363405792122 ], [ -6.076385779345914, 53.140365005792127 ], [ -6.076391373655604, 53.140366604166331 ], [ -6.07639706801166, 53.140368302483061 ], [ -6.076397079345871, 53.140368305792123 ], [ -6.07640267934591, 53.140369905792141 ], [ -6.076402683957451, 53.14036990709814 ], [ -6.076408383957493, 53.140371507098173 ], [ -6.076408560493105, 53.140371541369518 ], [ -6.076415560493174, 53.140372341369535 ], [ -6.076415562390871, 53.140372341584857 ], [ -6.076422662390865, 53.140373141584881 ], [ -6.076429761441885, 53.140373941477954 ], [ -6.076436760493157, 53.140374741369527 ], [ -6.076436882983325, 53.140374749154077 ], [ -6.07644418298332, 53.140374849154064 ], [ -6.076451474484957, 53.140374949037671 ], [ -6.076458765993205, 53.140375148805006 ], [ -6.076458782983321, 53.140375149154096 ], [ -6.076466083213158, 53.140375249157216 ], [ -6.076473483213158, 53.14037534915721 ], [ -6.076480883096492, 53.140375449155641 ], [ -6.076488183213156, 53.14037554915722 ], [ -6.076495583213157, 53.140375649157228 ], [ -6.076502983213235, 53.140375749157229 ], [ -6.076503040678469, 53.140375748604264 ], [ -6.076509140678464, 53.140375548604254 ], [ -6.076515240351617, 53.140375348614981 ], [ -6.076521440678467, 53.140375148604271 ], [ -6.076527423129069, 53.140374952458345 ], [ -6.076533601962812, 53.140375933225606 ], [ -6.076539994662408, 53.14037703197085 ], [ -6.076540009303988, 53.14037703439088 ], [ -6.076546301962717, 53.140378033225581 ], [ -6.076552694662387, 53.140379131970846 ], [ -6.076552709303968, 53.140379134390869 ], [ -6.07655897078947, 53.140380128277464 ], [ -6.076565027321873, 53.140381518301282 ], [ -6.076571221113232, 53.140383016799213 ], [ -6.076571233574212, 53.140383019736277 ], [ -6.076577325344799, 53.140384417847542 ], [ -6.076583248675235, 53.140385874404203 ], [ -6.076587230751999, 53.140388690995117 ], [ -6.076591330751942, 53.140391590995115 ], [ -6.076595430751886, 53.140394490995106 ], [ -6.076599530751874, 53.140397390995119 ], [ -6.076599536557517, 53.140397395052318 ], [ -6.07660365116825, 53.140400236093086 ], [ -6.076606002708046, 53.140403861383696 ], [ -6.076608401522321, 53.140407659506408 ], [ -6.076610801522269, 53.140411459506403 ], [ -6.076610803921517, 53.140411463254658 ], [ -6.076613202707851, 53.140415161383679 ], [ -6.076615552847661, 53.140418882438482 ], [ -6.076615552847594, 53.1404228 ], [ -6.076615552932001, 53.140422806753008 ], [ -6.076615652936316, 53.140426806926122 ], [ -6.076615752847458, 53.140430703463316 ], [ -6.076615752847389, 53.140434699999979 ], [ -6.076615752931795, 53.140434706753005 ], [ -6.076615852931726, 53.140438706752988 ], [ -6.07661585360596, 53.140438720240738 ], [ -6.076616153353235, 53.140442716871981 ], [ -6.076616353184638, 53.140446713501447 ], [ -6.076616553184569, 53.140450713501458 ], [ -6.076616553605752, 53.14045072024075 ], [ -6.076616853353028, 53.140454716872043 ], [ -6.076617051782461, 53.140458685462029 ], [ -6.07661645619184, 53.140462457535563 ], [ -6.076615856744672, 53.140466254033868 ], [ -6.076615157388607, 53.140470050537864 ], [ -6.076615156191708, 53.140470057535559 ], [ -6.076614556191641, 53.140473857535561 ], [ -6.076613956191578, 53.140477657535548 ], [ -6.076613952935435, 53.140477706926099 ] ] ] ] } }
]
}
