{
"type": "FeatureCollection",
"name": "H01_green_4326_inset_0p20m",
"crs": { "type": "name", "properties": { "name": "urn:ogc:def:crs:OGC:1.3:CRS84" } },
"features": [
{ "type": "Feature", "properties": { "fid": 1, "id": "03A570FDFE3DC0D29DBC", "Name": "1-green", "description": null, "timestamp": null, "begin": null, "end": null, "altitudeMode": null, "tessellate": -1, "extrude": 0, "visibility": -1, "drawOrder": null, "icon": null }, "geometry": { "type": "MultiPolygon", "coordinates": [ [ [ [ -6.07661171174173, 53.140477727704429 ], [ -6.076611811741457, 53.140481627704453 ], [ -6.076611812806188, 53.140481655389188 ], [ -6.076612012881577, 53.140485556845356 ], [ -6.076612212842988, 53.140489356117172 ], [ -6.076612412095645, 53.140493241549244 ], [ -6.076612511740381, 53.140497127704428 ], [ -6.076612514138044, 53.140497177114767 ], [ -6.076612813220895, 53.140501364278734 ], [ -6.076613012609052, 53.140505551436156 ], [ -6.076613014273186, 53.14050557899202 ], [ -6.076613306995449, 53.140509579533457 ], [ -6.076612919922806, 53.140513063185068 ], [ -6.076612422349774, 53.140516546194597 ], [ -6.076612418415962, 53.140516576793132 ], [ -6.07661202016536, 53.140520061483805 ], [ -6.076611551562951, 53.140523341699101 ], [ -6.076609556707161, 53.140527046430812 ], [ -6.076609550023119, 53.140527059001343 ], [ -6.076607453326441, 53.140531052708802 ], [ -6.076605356706539, 53.140534946431011 ], [ -6.076603385124704, 53.140538607939703 ], [ -6.076599717180235, 53.140541899684557 ], [ -6.07659583827731, 53.140545380751107 ], [ -6.07659201071883, 53.140548634175673 ], [ -6.076587013236441, 53.140551613443918 ], [ -6.076581830908377, 53.140554603248503 ], [ -6.076576630908161, 53.140557603248538 ], [ -6.076571773286997, 53.140560405722233 ], [ -6.076566030149873, 53.140562073084602 ], [ -6.076559860035364, 53.140563764890175 ], [ -6.076559800570844, 53.14056378167205 ], [ -6.076553600570747, 53.140565581672064 ], [ -6.076547642664011, 53.14056731138691 ], [ -6.076541901730463, 53.140568268209165 ], [ -6.076535901730428, 53.14056926820917 ], [ -6.076529901730405, 53.140570268209174 ], [ -6.076524132578775, 53.140571229734448 ], [ -6.07651841346519, 53.140571611008674 ], [ -6.076512356377821, 53.140571908898231 ], [ -6.076512352344848, 53.140571909098234 ], [ -6.076506352344847, 53.140572209098238 ], [ -6.076500352345096, 53.140572509098227 ], [ -6.076500270671442, 53.140572513861628 ], [ -6.076494692982462, 53.140572885707563 ], [ -6.076488411609088, 53.140572229444658 ], [ -6.076488340236485, 53.140572222521477 ], [ -6.076481640236475, 53.140571622521506 ], [ -6.076474940236468, 53.140571022521492 ], [ -6.076468240236736, 53.140570422521535 ], [ -6.07646823389984, 53.140570421958216 ], [ -6.076461972701441, 53.140569869499551 ], [ -6.076456148986772, 53.140567928261333 ], [ -6.076456131572538, 53.140567922502008 ], [ -6.076449731572412, 53.140565822502005 ], [ -6.076443331572282, 53.140563722501973 ], [ -6.076437067071765, 53.140561666962782 ], [ -6.076431394232576, 53.140559319581094 ], [ -6.076431374585137, 53.140559311520185 ], [ -6.076425474584977, 53.140556911520164 ], [ -6.076419584435193, 53.140554515527072 ], [ -6.07641414140531, 53.140552263238902 ], [ -6.076410308976048, 53.140549459022473 ], [ -6.076410277003883, 53.140549436021992 ], [ -6.076406177003667, 53.140546536021951 ], [ -6.076402104844561, 53.140543655714403 ], [ -6.076398197363784, 53.140540725103946 ], [ -6.076394467659851, 53.14053748615067 ], [ -6.076390778036226, 53.140534195405451 ], [ -6.076390757092633, 53.14053417697405 ], [ -6.076386967659415, 53.140530886150643 ], [ -6.076383278035721, 53.140527595405359 ], [ -6.076383257092131, 53.140527576973952 ], [ -6.076379457092031, 53.140524276974041 ], [ -6.076379189247567, 53.140524076661123 ], [ -6.076374099284454, 53.140520783155687 ], [ -6.07636910921432, 53.140517489709509 ], [ -6.076369057741929, 53.140517456586728 ], [ -6.076363973622517, 53.140514266551108 ], [ -6.076358899283747, 53.140510983155565 ], [ -6.076353909213581, 53.140507689709359 ], [ -6.076353515870955, 53.140507472674088 ], [ -6.0763485158708, 53.140505172674075 ], [ -6.076343515870638, 53.140502872674055 ], [ -6.076338515870476, 53.140500572674021 ], [ -6.076333515870323, 53.140498272674002 ], [ -6.076328515870389, 53.140495972674074 ], [ -6.076327830104434, 53.140495736351241 ], [ -6.076322130104614, 53.140494336351303 ], [ -6.076322113344204, 53.140494332270237 ], [ -6.076316321734628, 53.140492934295523 ], [ -6.07631063010423, 53.140491536351234 ], [ -6.076304930104412, 53.140490136351275 ], [ -6.076304523359166, 53.140490056350771 ], [ -6.076298523359168, 53.140489156350803 ], [ -6.076292560940653, 53.140488261988011 ], [ -6.076286598266584, 53.140487268209 ], [ -6.076286523359089, 53.140487256350767 ], [ -6.076280523359316, 53.140486356350813 ], [ -6.076280408267832, 53.140486340532227 ], [ -6.076274044516632, 53.140485545063342 ], [ -6.076267680567301, 53.140484650132976 ], [ -6.076261280567285, 53.140483750132972 ], [ -6.076255228194703, 53.140482899018096 ], [ -6.076249946890882, 53.140481295765156 ], [ -6.07624988262242, 53.140481276832283 ], [ -6.076244314945066, 53.140479686067337 ], [ -6.076238756612105, 53.140477998716271 ], [ -6.076233266297548, 53.140476301709974 ], [ -6.076233246890342, 53.140476295765041 ], [ -6.076227975026402, 53.140474695377797 ], [ -6.076223053239275, 53.140472139834529 ], [ -6.076217853239083, 53.140469439834497 ], [ -6.076212653238884, 53.140466739834466 ], [ -6.076207721418807, 53.140464179081825 ], [ -6.076204228014983, 53.140461252176031 ], [ -6.076200528014748, 53.140458152175981 ], [ -6.076196839272311, 53.140455061608129 ], [ -6.076193331304969, 53.140452040858627 ], [ -6.076190210903134, 53.140448725431888 ], [ -6.076187120598717, 53.14044533606598 ], [ -6.076184020598466, 53.140441936065947 ], [ -6.076180920598208, 53.140438536065894 ], [ -6.076177820598059, 53.14043513606596 ], [ -6.076177800968333, 53.14043511487705 ], [ -6.076174610901787, 53.140431725431569 ], [ -6.076171520597436, 53.140428336065739 ], [ -6.076168676325123, 53.140425216541495 ], [ -6.076167655402096, 53.140421132850477 ], [ -6.076166559038901, 53.140416747398895 ], [ -6.076165591675031, 53.140412394262874 ], [ -6.076165688270724, 53.140408627012029 ], [ -6.076165788261818, 53.140404627357164 ], [ -6.076165885924506, 53.140400818502059 ], [ -6.076166568386549, 53.140397308696016 ], [ -6.076167268386299, 53.140393708696017 ], [ -6.076167968386045, 53.140390108696053 ], [ -6.076168624938871, 53.140386732137479 ], [ -6.076170591234476, 53.140383642244068 ], [ -6.076170601623254, 53.140383625674716 ], [ -6.076172693584128, 53.140380238690092 ], [ -6.07617488521157, 53.140376851629156 ], [ -6.07617490162276, 53.140376825674792 ], [ -6.076176926920902, 53.140373546620339 ], [ -6.076179723311856, 53.140370460947338 ], [ -6.076182713008826, 53.140367172280456 ], [ -6.076185703426471, 53.140363982501434 ], [ -6.076185722367902, 53.140363961985273 ], [ -6.076188722367766, 53.140360661985191 ], [ -6.076188724252158, 53.140360659909113 ], [ -6.076191511401773, 53.140357584433495 ], [ -6.076195467466396, 53.140354496773163 ], [ -6.07619923118128, 53.140351559239498 ], [ -6.076204461346912, 53.140349632336324 ], [ -6.076204481470167, 53.140349624856469 ], [ -6.076210081470292, 53.140347524856402 ], [ -6.076210134613251, 53.140347504456486 ], [ -6.076215708220586, 53.140345314824998 ], [ -6.076221271432758, 53.140343228620402 ], [ -6.076226521834426, 53.140341294261887 ], [ -6.076232317509614, 53.14034055830313 ], [ -6.076238617509579, 53.140339758303128 ], [ -6.076244917509563, 53.140338958303147 ], [ -6.076251032292156, 53.14033818182282 ], [ -6.076256903204032, 53.140337893089423 ], [ -6.076262962713821, 53.140337694416985 ], [ -6.076263043619486, 53.140337691101792 ], [ -6.076269101897868, 53.140337393153679 ], [ -6.0762750201231, 53.140337202243195 ], [ -6.076280981175815, 53.140337586827243 ], [ -6.076281056380251, 53.140337591101783 ], [ -6.076287118733132, 53.140337889250297 ], [ -6.076293281175531, 53.140338286827216 ], [ -6.076298949799738, 53.140338652544933 ], [ -6.076305171112813, 53.140340509653321 ], [ -6.076305225209885, 53.14034052539602 ], [ -6.076311925209787, 53.140342425396007 ], [ -6.076318598029516, 53.140344317688182 ], [ -6.076325220183342, 53.140346294450538 ], [ -6.076330941587683, 53.140348168703724 ], [ -6.0763367132705, 53.140350158939199 ], [ -6.076336751026341, 53.140350171740579 ], [ -6.076342432071089, 53.140352065422171 ], [ -6.076348215105204, 53.140354059571386 ], [ -6.076354315105347, 53.140356159571461 ], [ -6.076354333250531, 53.140356165767699 ], [ -6.076360533250405, 53.140358265767674 ], [ -6.076366724159685, 53.140360362688583 ], [ -6.07637281510497, 53.140362459571399 ], [ -6.076372833250144, 53.14036246576763 ], [ -6.076379033250292, 53.140364565767698 ], [ -6.076379217383713, 53.140364623168551 ], [ -6.076384817383625, 53.140366223168527 ], [ -6.076390394622253, 53.140367816665297 ], [ -6.076396072046601, 53.140369509932228 ], [ -6.076396117383442, 53.140369523168523 ], [ -6.076401717383601, 53.140371123168578 ], [ -6.076401735829766, 53.140371128392609 ], [ -6.076407435829934, 53.14037272839267 ], [ -6.0764081419724, 53.140372865478078 ], [ -6.076415141972675, 53.140373665478116 ], [ -6.076415149563464, 53.140373666339514 ], [ -6.076422249563441, 53.140374466339516 ], [ -6.076429345767517, 53.140375265911821 ], [ -6.076436341972608, 53.140376065478108 ], [ -6.07643683193329, 53.14037609661635 ], [ -6.076444131933269, 53.140376196616351 ], [ -6.0764513979399, 53.140376296150706 ], [ -6.076458663972816, 53.140376495220096 ], [ -6.076458731933283, 53.140376496616362 ], [ -6.076466032852625, 53.140376596628869 ], [ -6.076473432852629, 53.14037669662887 ], [ -6.07648083239159, 53.14037679662264 ], [ -6.07648813285262, 53.140376896628887 ], [ -6.076495532852629, 53.140376996628888 ], [ -6.076502932852938, 53.140377096628903 ], [ -6.07650316271388, 53.140377094417069 ], [ -6.076509262713869, 53.140376894417059 ], [ -6.076515361404975, 53.140376694459988 ], [ -6.076521562713875, 53.140376494417076 ], [ -6.076527192516286, 53.1403763098334 ], [ -6.076533007851036, 53.140377232902402 ], [ -6.0765393786496, 53.140378327883425 ], [ -6.076539437215925, 53.140378337563504 ], [ -6.076545707850966, 53.140379332902413 ], [ -6.076552078649525, 53.140380427883414 ], [ -6.076552137215846, 53.1403804375635 ], [ -6.076558283157867, 53.140381413109864 ], [ -6.076564209287407, 53.140382773205154 ], [ -6.076570384452895, 53.14038426719685 ], [ -6.076570434296814, 53.140384278945049 ], [ -6.076576501379288, 53.140385671390213 ], [ -6.076581894700878, 53.140386997616858 ], [ -6.07658552300794, 53.14038956398047 ], [ -6.076589623007718, 53.140392463980426 ], [ -6.076593723007498, 53.140395363980389 ], [ -6.076597823007452, 53.140398263980458 ], [ -6.07659784623002, 53.140398280209283 ], [ -6.076601704672949, 53.140400944372367 ], [ -6.076603910832423, 53.140404345535202 ], [ -6.076606306089253, 53.140408138025592 ], [ -6.07660870608904, 53.140411938025629 ], [ -6.076608715686034, 53.140411953018621 ], [ -6.076611110831542, 53.140415645534979 ], [ -6.076613311390632, 53.14041912975393 ], [ -6.076613311390378, 53.140422799999961 ], [ -6.076613311728006, 53.140422827012024 ], [ -6.076613411745261, 53.140426827704488 ], [ -6.076613511389829, 53.140430713853071 ], [ -6.07661351138955, 53.14043469999995 ], [ -6.076613511727182, 53.140434727012007 ], [ -6.076613611726904, 53.140438727012004 ], [ -6.076613614423838, 53.140438780962981 ], [ -6.076613913412952, 53.140442767488217 ], [ -6.076614112738553, 53.140446754005751 ], [ -6.076614312738275, 53.140450754005769 ], [ -6.076614314423003, 53.140450780962979 ], [ -6.076614613412113, 53.14045476748813 ], [ -6.076614807129844, 53.140458641848127 ], [ -6.076614224767372, 53.140462330142185 ], [ -6.07661362697869, 53.140466116135499 ], [ -6.07661292955444, 53.140469902151445 ], [ -6.076612924766838, 53.140469930142224 ], [ -6.076612324766575, 53.14047373014224 ], [ -6.076611724766317, 53.140477530142192 ], [ -6.07661171174173, 53.140477727704429 ] ] ] ] } }
]
}
