{
"type": "FeatureCollection",
"name": "H01_green",
"features": [
{ "type": "Feature", "properties": { "fid": 1, "id": "03A570FDFE3DC0D29DBC", "Name": "1-green", "description": null, "timestamp": null, "begin": null, "end": null, "altitudeMode": null, "tessellate": -1, "extrude": 0, "visibility": -1, "drawOrder": null, "icon": null }, "geometry": { "type": "Polygon", "coordinates": [ [ [ -6.0766147, 53.1404777, 0.0 ], [ -6.0766153, 53.1404739, 0.0 ], [ -6.0766159, 53.1404701, 0.0 ], [ -6.0766166, 53.1404663, 0.0 ], [ -6.0766172, 53.1404625, 0.0 ], [ -6.0766178, 53.1404587, 0.0 ], [ -6.0766176, 53.1404547, 0.0 ], [ -6.0766173, 53.1404507, 0.0 ], [ -6.0766171, 53.1404467, 0.0 ], [ -6.0766169, 53.1404427, 0.0 ], [ -6.0766166, 53.1404387, 0.0 ], [ -6.0766165, 53.1404347, 0.0 ], [ -6.0766165, 53.1404307, 0.0 ], [ -6.0766164, 53.1404268, 0.0 ], [ -6.0766163, 53.1404228, 0.0 ], [ -6.0766163, 53.1404188, 0.0 ], [ -6.0766139, 53.140415, 0.0 ], [ -6.0766115, 53.1404113, 0.0 ], [ -6.0766091, 53.1404075, 0.0 ], [ -6.0766067, 53.1404037, 0.0 ], [ -6.0766043, 53.1404, 0.0 ], [ -6.0766001, 53.1403971, 0.0 ], [ -6.076596, 53.1403942, 0.0 ], [ -6.0765919, 53.1403913, 0.0 ], [ -6.0765878, 53.1403884, 0.0 ], [ -6.0765837, 53.1403855, 0.0 ], [ -6.0765776, 53.140384, 0.0 ], [ -6.0765715, 53.1403826, 0.0 ], [ -6.0765653, 53.1403811, 0.0 ], [ -6.0765592, 53.1403797, 0.0 ], [ -6.0765529, 53.1403787, 0.0 ], [ -6.0765465, 53.1403776, 0.0 ], [ -6.0765402, 53.1403766, 0.0 ], [ -6.0765338, 53.1403755, 0.0 ], [ -6.0765275, 53.1403745, 0.0 ], [ -6.0765214, 53.1403747, 0.0 ], [ -6.0765152, 53.1403749, 0.0 ], [ -6.0765091, 53.1403751, 0.0 ], [ -6.076503, 53.1403753, 0.0 ], [ -6.0764956, 53.1403752, 0.0 ], [ -6.0764882, 53.1403751, 0.0 ], [ -6.0764809, 53.140375, 0.0 ], [ -6.0764735, 53.1403749, 0.0 ], [ -6.0764661, 53.1403748, 0.0 ], [ -6.0764588, 53.1403747, 0.0 ], [ -6.0764515, 53.1403745, 0.0 ], [ -6.0764442, 53.1403744, 0.0 ], [ -6.0764369, 53.1403743, 0.0 ], [ -6.0764299, 53.1403735, 0.0 ], [ -6.0764228, 53.1403727, 0.0 ], [ -6.0764157, 53.1403719, 0.0 ], [ -6.0764087, 53.1403711, 0.0 ], [ -6.076403, 53.1403695, 0.0 ], [ -6.0763974, 53.1403679, 0.0 ], [ -6.0763917, 53.1403662, 0.0 ], [ -6.0763861, 53.1403646, 0.0 ], [ -6.0763805, 53.140363, 0.0 ], [ -6.0763743, 53.1403609, 0.0 ], [ -6.0763682, 53.1403588, 0.0 ], [ -6.076362, 53.1403567, 0.0 ], [ -6.0763558, 53.1403546, 0.0 ], [ -6.0763497, 53.1403525, 0.0 ], [ -6.0763439, 53.1403505, 0.0 ], [ -6.0763382, 53.1403486, 0.0 ], [ -6.0763324, 53.1403466, 0.0 ], [ -6.0763266, 53.1403447, 0.0 ], [ -6.0763199, 53.1403427, 0.0 ], [ -6.0763132, 53.1403408, 0.0 ], [ -6.0763065, 53.1403389, 0.0 ], [ -6.0762998, 53.1403369, 0.0 ], [ -6.0762936, 53.1403365, 0.0 ], [ -6.0762874, 53.1403361, 0.0 ], [ -6.0762813, 53.1403358, 0.0 ], [ -6.0762751, 53.1403354, 0.0 ], [ -6.0762689, 53.1403356, 0.0 ], [ -6.0762628, 53.1403359, 0.0 ], [ -6.0762567, 53.1403361, 0.0 ], [ -6.0762506, 53.1403364, 0.0 ], [ -6.0762443, 53.1403372, 0.0 ], [ -6.076238, 53.140338, 0.0 ], [ -6.0762317, 53.1403388, 0.0 ], [ -6.0762254, 53.1403396, 0.0 ], [ -6.0762197, 53.1403417, 0.0 ], [ -6.0762141, 53.1403438, 0.0 ], [ -6.0762085, 53.140346, 0.0 ], [ -6.0762029, 53.1403481, 0.0 ], [ -6.0761972, 53.1403502, 0.0 ], [ -6.0761931, 53.1403534, 0.0 ], [ -6.076189, 53.1403566, 0.0 ], [ -6.0761861, 53.1403598, 0.0 ], [ -6.0761831, 53.1403631, 0.0 ], [ -6.0761801, 53.1403663, 0.0 ], [ -6.0761771, 53.1403696, 0.0 ], [ -6.0761742, 53.1403728, 0.0 ], [ -6.0761721, 53.1403762, 0.0 ], [ -6.0761699, 53.1403796, 0.0 ], [ -6.0761678, 53.140383, 0.0 ], [ -6.0761657, 53.1403863, 0.0 ], [ -6.076165, 53.1403899, 0.0 ], [ -6.0761643, 53.1403935, 0.0 ], [ -6.0761636, 53.1403971, 0.0 ], [ -6.0761629, 53.1404007, 0.0 ], [ -6.0761628, 53.1404046, 0.0 ], [ -6.0761627, 53.1404086, 0.0 ], [ -6.0761626, 53.1404125, 0.0 ], [ -6.0761636, 53.140417, 0.0 ], [ -6.0761647, 53.1404214, 0.0 ], [ -6.0761658, 53.1404258, 0.0 ], [ -6.0761689, 53.1404292, 0.0 ], [ -6.076172, 53.1404326, 0.0 ], [ -6.0761752, 53.140436, 0.0 ], [ -6.0761783, 53.1404394, 0.0 ], [ -6.0761814, 53.1404428, 0.0 ], [ -6.0761845, 53.1404462, 0.0 ], [ -6.0761876, 53.1404496, 0.0 ], [ -6.0761908, 53.140453, 0.0 ], [ -6.0761944, 53.1404561, 0.0 ], [ -6.0761981, 53.1404592, 0.0 ], [ -6.0762018, 53.1404623, 0.0 ], [ -6.0762055, 53.1404654, 0.0 ], [ -6.0762107, 53.1404681, 0.0 ], [ -6.0762159, 53.1404708, 0.0 ], [ -6.0762211, 53.1404735, 0.0 ], [ -6.0762263, 53.1404762, 0.0 ], [ -6.0762319, 53.1404779, 0.0 ], [ -6.0762374, 53.1404796, 0.0 ], [ -6.076243, 53.1404813, 0.0 ], [ -6.0762486, 53.1404829, 0.0 ], [ -6.0762542, 53.1404846, 0.0 ], [ -6.0762606, 53.1404855, 0.0 ], [ -6.076267, 53.1404864, 0.0 ], [ -6.0762734, 53.1404873, 0.0 ], [ -6.0762798, 53.1404881, 0.0 ], [ -6.0762858, 53.140489, 0.0 ], [ -6.0762918, 53.14049, 0.0 ], [ -6.0762978, 53.1404909, 0.0 ], [ -6.0763038, 53.1404918, 0.0 ], [ -6.0763095, 53.1404932, 0.0 ], [ -6.0763152, 53.1404946, 0.0 ], [ -6.076321, 53.140496, 0.0 ], [ -6.0763267, 53.1404974, 0.0 ], [ -6.0763317, 53.1404997, 0.0 ], [ -6.0763367, 53.140502, 0.0 ], [ -6.0763417, 53.1405043, 0.0 ], [ -6.0763467, 53.1405066, 0.0 ], [ -6.0763517, 53.1405089, 0.0 ], [ -6.0763567, 53.1405122, 0.0 ], [ -6.0763618, 53.1405155, 0.0 ], [ -6.0763669, 53.1405187, 0.0 ], [ -6.0763719, 53.140522, 0.0 ], [ -6.076377, 53.1405253, 0.0 ], [ -6.0763808, 53.1405286, 0.0 ], [ -6.0763845, 53.1405319, 0.0 ], [ -6.0763883, 53.1405352, 0.0 ], [ -6.076392, 53.1405385, 0.0 ], [ -6.0763958, 53.1405418, 0.0 ], [ -6.0763998, 53.1405448, 0.0 ], [ -6.0764039, 53.1405477, 0.0 ], [ -6.076408, 53.1405506, 0.0 ], [ -6.0764121, 53.1405536, 0.0 ], [ -6.0764179, 53.140556, 0.0 ], [ -6.0764238, 53.1405584, 0.0 ], [ -6.0764297, 53.1405608, 0.0 ], [ -6.0764355, 53.1405632, 0.0 ], [ -6.0764419, 53.1405653, 0.0 ], [ -6.0764483, 53.1405674, 0.0 ], [ -6.0764547, 53.1405695, 0.0 ], [ -6.076461, 53.1405716, 0.0 ], [ -6.0764678, 53.1405722, 0.0 ], [ -6.0764745, 53.1405728, 0.0 ], [ -6.0764812, 53.1405734, 0.0 ], [ -6.0764879, 53.140574, 0.0 ], [ -6.0764946, 53.1405747, 0.0 ], [ -6.0765006, 53.1405743, 0.0 ], [ -6.0765066, 53.140574, 0.0 ], [ -6.0765126, 53.1405737, 0.0 ], [ -6.0765187, 53.1405734, 0.0 ], [ -6.0765247, 53.140573, 0.0 ], [ -6.0765307, 53.140572, 0.0 ], [ -6.0765367, 53.140571, 0.0 ], [ -6.0765427, 53.14057, 0.0 ], [ -6.0765487, 53.140569, 0.0 ], [ -6.0765549, 53.1405672, 0.0 ], [ -6.0765611, 53.1405654, 0.0 ], [ -6.0765673, 53.1405637, 0.0 ], [ -6.0765735, 53.1405619, 0.0 ], [ -6.0765787, 53.1405589, 0.0 ], [ -6.0765839, 53.1405559, 0.0 ], [ -6.0765891, 53.1405529, 0.0 ], [ -6.0765943, 53.1405498, 0.0 ], [ -6.0765983, 53.1405464, 0.0 ], [ -6.0766022, 53.1405429, 0.0 ], [ -6.0766061, 53.1405394, 0.0 ], [ -6.0766082, 53.1405355, 0.0 ], [ -6.0766103, 53.1405316, 0.0 ], [ -6.0766124, 53.1405276, 0.0 ], [ -6.0766145, 53.1405237, 0.0 ], [ -6.076615, 53.1405202, 0.0 ], [ -6.0766154, 53.1405167, 0.0 ], [ -6.0766159, 53.1405132, 0.0 ], [ -6.0766163, 53.1405096, 0.0 ], [ -6.076616, 53.1405055, 0.0 ], [ -6.0766158, 53.1405013, 0.0 ], [ -6.0766155, 53.1404971, 0.0 ], [ -6.0766154, 53.1404932, 0.0 ], [ -6.0766152, 53.1404893, 0.0 ], [ -6.076615, 53.1404855, 0.0 ], [ -6.0766148, 53.1404816, 0.0 ], [ -6.0766147, 53.1404777, 0.0 ] ] ] } }
]
}
