{
"type": "FeatureCollection",
"name": "H02_green_inset020",
"crs": { "type": "name", "properties": { "name": "urn:ogc:def:crs:OGC:1.3:CRS84" } },
"features": [
{ "type": "Feature", "properties": { "fid": 2, "Name": "2-green", "description": null, "timestamp": null, "begin": null, "end": null, "altitudeMode": null, "tessellate": -1, "extrude": 0, "visibility": -1, "drawOrder": null, "icon": null }, "geometry": { "type": "MultiPolygon", "coordinates": [ [ [ [ -6.076293319297001, 53.144000468650333 ], [ -6.076285864032675, 53.144012480586973 ], [ -6.076275372877114, 53.144023646803937 ], [ -6.076258052119083, 53.144036569480186 ], [ -6.076239526575599, 53.144046534401276 ], [ -6.076220047122587, 53.144052547508409 ], [ -6.07621973461019, 53.144052658900868 ], [ -6.07619958755781, 53.144060874267609 ], [ -6.076182620384698, 53.144064505545401 ], [ -6.076182230811139, 53.144064608239098 ], [ -6.076165114989817, 53.144070023600186 ], [ -6.076145284221887, 53.144075290196518 ], [ -6.076128189594396, 53.144078950556626 ], [ -6.076102295471734, 53.144081001111402 ], [ -6.076077219821989, 53.144080844083341 ], [ -6.076058143984572, 53.14407817658735 ], [ -6.076042651120988, 53.144074537693363 ], [ -6.076014242357234, 53.144065768242456 ], [ -6.075998045539736, 53.144059559362709 ], [ -6.075978167762658, 53.144050586996002 ], [ -6.075978008566221, 53.144050519892502 ], [ -6.075955561657903, 53.144041698637672 ], [ -6.07595551852952, 53.144041682004406 ], [ -6.075938768466294, 53.144035343209502 ], [ -6.07591735619394, 53.144024625202164 ], [ -6.075917074778304, 53.14402450034666 ], [ -6.075897448201625, 53.144016816531696 ], [ -6.075875570160536, 53.144003434843789 ], [ -6.075863805929521, 53.143992328222595 ], [ -6.075856245615243, 53.143979085793802 ], [ -6.075851502853139, 53.143966543823041 ], [ -6.075848762187499, 53.143954530485892 ], [ -6.07584846741649, 53.143940551178552 ], [ -6.075855654431357, 53.143924687301642 ], [ -6.075868915031574, 53.14390935186006 ], [ -6.075886088509515, 53.14389638492726 ], [ -6.075900263127214, 53.143887541844251 ], [ -6.075919102198789, 53.143877919163032 ], [ -6.075939006117297, 53.143872758782727 ], [ -6.075958715411633, 53.143869363108202 ], [ -6.075980303898743, 53.143867246275285 ], [ -6.075980384978763, 53.143867237634041 ], [ -6.076002694874917, 53.143864668846582 ], [ -6.076025566254472, 53.143865472425702 ], [ -6.076025679372552, 53.143865475108818 ], [ -6.076048673208942, 53.143865758426628 ], [ -6.076067893810686, 53.143867242333329 ], [ -6.076090627046738, 53.143870376149053 ], [ -6.076090809213829, 53.143870397703971 ], [ -6.076108544630523, 53.143872154144219 ], [ -6.076133981596582, 53.143878252603081 ], [ -6.076151115004056, 53.143883010987516 ], [ -6.076171504749199, 53.143891450914793 ], [ -6.076190376009637, 53.143900170369868 ], [ -6.076203409159977, 53.14390785626604 ], [ -6.076218029262936, 53.143917639276232 ], [ -6.07621834224281, 53.143917820319935 ], [ -6.07623187372345, 53.143924581126996 ], [ -6.076250557923101, 53.143937850136517 ], [ -6.07625059029058, 53.14393787273994 ], [ -6.07626628204394, 53.143948648702398 ], [ -6.076280780777817, 53.143960554969802 ], [ -6.076289519128012, 53.143972266784893 ], [ -6.07629269464019, 53.143985180017665 ], [ -6.076293319297001, 53.144000468650333 ] ] ] ] } }
]
}
