{
"type": "FeatureCollection",
"name": "H08_green_inset020",
"crs": { "type": "name", "properties": { "name": "urn:ogc:def:crs:OGC:1.3:CRS84" } },
"features": [
{ "type": "Feature", "properties": { "fid": 8, "Name": "8-green", "description": null, "timestamp": null, "begin": null, "end": null, "altitudeMode": null, "tessellate": -1, "extrude": 0, "visibility": -1, "drawOrder": null, "icon": null }, "geometry": { "type": "MultiPolygon", "coordinates": [ [ [ [ -6.06818003462195, 53.14267396412825 ], [ -6.068188846734584, 53.142682689808638 ], [ -6.068196132165779, 53.142695654446186 ], [ -6.068202315786886, 53.142711572301046 ], [ -6.068206216367704, 53.142729730968803 ], [ -6.068208740420848, 53.142745854339843 ], [ -6.068208104568456, 53.142762572023585 ], [ -6.068203403237836, 53.142777001133418 ], [ -6.06819757189717, 53.142790589106966 ], [ -6.068182918161489, 53.142806342743256 ], [ -6.068165289113824, 53.142819299648323 ], [ -6.06814617557739, 53.142830006403351 ], [ -6.06812173843812, 53.142842381013125 ], [ -6.068098813272831, 53.142850892783166 ], [ -6.068072536962926, 53.142856132832669 ], [ -6.068046264363406, 53.142858371823358 ], [ -6.068017438576906, 53.142857477303544 ], [ -6.067997932629961, 53.142853546349947 ], [ -6.067971721580746, 53.142845865422991 ], [ -6.067951825548971, 53.142837313319802 ], [ -6.067932389726022, 53.142828191000199 ], [ -6.06791289058552, 53.142817787246123 ], [ -6.067898018958674, 53.142807751682902 ], [ -6.067888427196271, 53.142795748485227 ], [ -6.067888424287916, 53.142795744856116 ], [ -6.067878690948097, 53.142783634101761 ], [ -6.067875519226623, 53.142775166964846 ], [ -6.06787454858137, 53.142761161179642 ], [ -6.067873964787241, 53.142749837995446 ], [ -6.067873929547046, 53.14274961301485 ], [ -6.067871646593807, 53.142740931597331 ], [ -6.067871593730779, 53.142740775681681 ], [ -6.067871518137106, 53.142740623188921 ], [ -6.067871420405462, 53.142740475314625 ], [ -6.067862861686529, 53.142729029844133 ], [ -6.067862747866577, 53.142728893436278 ], [ -6.067862615208546, 53.142728763326971 ], [ -6.067848064944169, 53.142715765495758 ], [ -6.067848028432402, 53.142715733625828 ], [ -6.067833277171815, 53.142703149940246 ], [ -6.067833248186838, 53.142703125646072 ], [ -6.06781926205956, 53.142691606513296 ], [ -6.067810766582969, 53.142678752385613 ], [ -6.067810682439307, 53.142678637026052 ], [ -6.067803587255945, 53.142669768405426 ], [ -6.067803478542301, 53.142649011552372 ], [ -6.067812664447664, 53.142636650644562 ], [ -6.06782455481828, 53.142621839990191 ], [ -6.067841350952458, 53.142611398094637 ], [ -6.067861968423007, 53.14260236065811 ], [ -6.067887136518983, 53.142597045092579 ], [ -6.067920535434032, 53.142594781081691 ], [ -6.06793895169498, 53.142595216359013 ], [ -6.067970094894101, 53.142598939226559 ], [ -6.068001743791078, 53.142606385157706 ], [ -6.068021173621187, 53.142612247313714 ], [ -6.068056992526671, 53.1426243959164 ], [ -6.068057040270022, 53.142624411765873 ], [ -6.068088920870665, 53.142634768170446 ], [ -6.068123890562058, 53.142647112104854 ], [ -6.068148690410801, 53.142656290120271 ], [ -6.068163306382365, 53.142662257361884 ], [ -6.06818003462195, 53.14267396412825 ] ] ] ] } }
]
}
