{
"type": "FeatureCollection",
"name": "H10_green_inset020",
"crs": { "type": "name", "properties": { "name": "urn:ogc:def:crs:OGC:1.3:CRS84" } },
"features": [
{ "type": "Feature", "properties": { "fid": 10, "Name": "10-green", "description": null, "timestamp": null, "begin": null, "end": null, "altitudeMode": null, "tessellate": -1, "extrude": 0, "visibility": -1, "drawOrder": null, "icon": null }, "geometry": { "type": "MultiPolygon", "coordinates": [ [ [ [ -6.070069960588125, 53.135361089603563 ], [ -6.07005617502281, 53.135369001479717 ], [ -6.070031148849134, 53.135378794257676 ], [ -6.070011413371105, 53.135382836525601 ], [ -6.069981220719553, 53.135386934681954 ], [ -6.069949758690867, 53.135385795561163 ], [ -6.069925640136182, 53.135382518158472 ], [ -6.069900332629306, 53.135378142458194 ], [ -6.069880482505311, 53.135370211116552 ], [ -6.069864987456985, 53.135360613138836 ], [ -6.069848824628807, 53.135348585741106 ], [ -6.069848716147271, 53.135348509474362 ], [ -6.069824147317676, 53.135332182549156 ], [ -6.069823948631353, 53.135332062418406 ], [ -6.069802275724305, 53.135320139284183 ], [ -6.069802053956146, 53.13532002860682 ], [ -6.06980181549133, 53.1353199312911 ], [ -6.069775159452434, 53.135310147553476 ], [ -6.069755907082523, 53.135302507504726 ], [ -6.069755663903772, 53.135302420646575 ], [ -6.06973151759242, 53.13529470130193 ], [ -6.069709529187979, 53.135284810592545 ], [ -6.06968873805083, 53.135268852545927 ], [ -6.069676900973021, 53.135255362542971 ], [ -6.069666142568031, 53.1352372945829 ], [ -6.069667042016404, 53.135217303118374 ], [ -6.069677009929823, 53.13519807718631 ], [ -6.069696154080508, 53.135177615721048 ], [ -6.069716006105795, 53.135162097515412 ], [ -6.069732970678107, 53.135153850840318 ], [ -6.069753449348978, 53.135148827007448 ], [ -6.069776996205519, 53.135145822589635 ], [ -6.069810264476773, 53.135146663369618 ], [ -6.069834254518425, 53.135147884957455 ], [ -6.069859672631503, 53.135151246887169 ], [ -6.069886895165966, 53.135154987379899 ], [ -6.069900679031103, 53.13515935977658 ], [ -6.069916913145517, 53.135165797066655 ], [ -6.069923414663816, 53.135177031244091 ], [ -6.069923530373681, 53.135177202312882 ], [ -6.069923674666765, 53.135177365336638 ], [ -6.069923846019192, 53.1351775185937 ], [ -6.069924042621309, 53.135177660465502 ], [ -6.069924262396805, 53.135177789453728 ], [ -6.069937776405899, 53.135184943567026 ], [ -6.069949389953112, 53.135195213796536 ], [ -6.069949544295929, 53.135195338348538 ], [ -6.069949715947273, 53.13519545441973 ], [ -6.06994990362468, 53.135195561142957 ], [ -6.069950105925956, 53.135195657720821 ], [ -6.069971068228571, 53.135204805564889 ], [ -6.069971280022902, 53.135204889965173 ], [ -6.069971502973492, 53.135204963240653 ], [ -6.06999837915633, 53.135212923575018 ], [ -6.07002430165524, 53.135220742568826 ], [ -6.070046785231758, 53.135228173984672 ], [ -6.070075734114091, 53.135239131165434 ], [ -6.070093622775863, 53.135251146480535 ], [ -6.070104186962018, 53.135267132271551 ], [ -6.070108785318453, 53.13528753183207 ], [ -6.070106585121972, 53.135301521743273 ], [ -6.070103665526312, 53.135316700898549 ], [ -6.070095823819462, 53.13533367077904 ], [ -6.07008301735716, 53.135350120312431 ], [ -6.070069960588125, 53.135361089603563 ] ] ] ] } }
]
}
