{
"type": "FeatureCollection",
"name": "H11_green_inset020",
"crs": { "type": "name", "properties": { "name": "urn:ogc:def:crs:OGC:1.3:CRS84" } },
"features": [
{ "type": "Feature", "properties": { "fid": 11, "Name": "11-green", "description": null, "timestamp": null, "begin": null, "end": null, "altitudeMode": null, "tessellate": -1, "extrude": 0, "visibility": -1, "drawOrder": null, "icon": null }, "geometry": { "type": "MultiPolygon", "coordinates": [ [ [ [ -6.07122217799924, 53.136830605189388 ], [ -6.071220143298465, 53.136820204807506 ], [ -6.071220309322204, 53.136803428124871 ], [ -6.07122912662602, 53.136786236226492 ], [ -6.07124295703406, 53.136768947581324 ], [ -6.071261787957049, 53.1367548009949 ], [ -6.071277484488599, 53.136747316933629 ], [ -6.071305885255193, 53.136739155102553 ], [ -6.071331447767346, 53.136736910985405 ], [ -6.071357954115127, 53.136736978400556 ], [ -6.071383943157055, 53.136738704688213 ], [ -6.071420185216707, 53.136749075947733 ], [ -6.071458663090323, 53.136761644881538 ], [ -6.071478414042783, 53.136769591073367 ], [ -6.071478535275393, 53.136769637351421 ], [ -6.07150467615731, 53.136779094027723 ], [ -6.07153268158492, 53.136790254213032 ], [ -6.071549421691145, 53.136799195731072 ], [ -6.071560208159821, 53.136807552718935 ], [ -6.07157004508504, 53.136820711813002 ], [ -6.071575051790851, 53.136830766025007 ], [ -6.071576751923527, 53.136847134571333 ], [ -6.071577411524432, 53.136864633544896 ], [ -6.071576030642107, 53.136880916752233 ], [ -6.071576029497029, 53.136880931435165 ], [ -6.071575036329524, 53.136894885787108 ], [ -6.071575035616209, 53.136894896566709 ], [ -6.071574260319909, 53.136907570152168 ], [ -6.071572869855999, 53.13692154989792 ], [ -6.071568746831349, 53.13693726347325 ], [ -6.071563678080969, 53.136950519160855 ], [ -6.071550419222453, 53.13696465247245 ], [ -6.071536292919864, 53.136977007947571 ], [ -6.071515910465573, 53.13699209209171 ], [ -6.071493664095152, 53.136999912286527 ], [ -6.07147119574333, 53.137004740109532 ], [ -6.07145346324727, 53.137005755929451 ], [ -6.071425735003343, 53.137006723602305 ], [ -6.071403523014915, 53.137003670582473 ], [ -6.071376410608615, 53.136994191634408 ], [ -6.071355563915965, 53.136983190739777 ], [ -6.071335712713265, 53.136970504708025 ], [ -6.071326616576582, 53.136961279443611 ], [ -6.071318464364355, 53.136951863982972 ], [ -6.071314568795414, 53.136940492850684 ], [ -6.071314794667674, 53.136928367547569 ], [ -6.071315130043602, 53.136915379077664 ], [ -6.071315119619498, 53.136915198641262 ], [ -6.071313564700578, 53.136904221985894 ], [ -6.071313522529584, 53.136904037708462 ], [ -6.071313448908264, 53.136903857039663 ], [ -6.07131334462541, 53.136903681915236 ], [ -6.071306045441467, 53.136893172624688 ], [ -6.071305935489905, 53.136893031791956 ], [ -6.07130580569441, 53.136892897205996 ], [ -6.071305657027827, 53.13689276987558 ], [ -6.071291305143598, 53.136881544395465 ], [ -6.071291281701587, 53.136881526300222 ], [ -6.071275630324115, 53.136869602512888 ], [ -6.071275337609225, 53.136869410058601 ], [ -6.071258609534805, 53.136859900088474 ], [ -6.071244672733487, 53.136850779376765 ], [ -6.071230600438846, 53.13684002365811 ], [ -6.07122217799924, 53.136830605189388 ] ] ] ] } }
]
}
