{
"type": "FeatureCollection",
"name": "H12_green_inset020",
"crs": { "type": "name", "properties": { "name": "urn:ogc:def:crs:OGC:1.3:CRS84" } },
"features": [
{ "type": "Feature", "properties": { "fid": 12, "Name": "12-green", "description": null, "timestamp": null, "begin": null, "end": null, "altitudeMode": null, "tessellate": -1, "extrude": 0, "visibility": -1, "drawOrder": null, "icon": null }, "geometry": { "type": "MultiPolygon", "coordinates": [ [ [ [ -6.070443302334071, 53.134623229553888 ], [ -6.070437200037946, 53.134616030580361 ], [ -6.070434729756643, 53.134604586283395 ], [ -6.070434456426493, 53.134595601856823 ], [ -6.070434447920821, 53.13459549531585 ], [ -6.070433416755749, 53.134587525754149 ], [ -6.070433239284093, 53.134579714472487 ], [ -6.070434503188274, 53.134569119649939 ], [ -6.070434509623357, 53.134568939589315 ], [ -6.070434486057573, 53.134568760045561 ], [ -6.070434432727614, 53.134568582822048 ], [ -6.070431032694623, 53.134559816874393 ], [ -6.070430944757888, 53.134559634374952 ], [ -6.070430825272269, 53.134559458479345 ], [ -6.070424746582198, 53.134551707899597 ], [ -6.070419083924439, 53.134543606925888 ], [ -6.07041893775743, 53.134543426690321 ], [ -6.07041875911055, 53.134543257370382 ], [ -6.07040922433931, 53.134535246326003 ], [ -6.070402616738227, 53.134529167815934 ], [ -6.070402507931248, 53.134529074341401 ], [ -6.070390653826814, 53.134519549257632 ], [ -6.070390497465032, 53.13451943390158 ], [ -6.070390325767738, 53.134519326722049 ], [ -6.070378341264187, 53.134512440499179 ], [ -6.070372384243379, 53.134505457527808 ], [ -6.070372356631278, 53.134505425936574 ], [ -6.070364249347866, 53.134496369830281 ], [ -6.070362824253519, 53.134487119441673 ], [ -6.070361870225488, 53.134474967687183 ], [ -6.070361863072642, 53.134474902080477 ], [ -6.070360041567384, 53.134461855557475 ], [ -6.070366491575666, 53.134450690743222 ], [ -6.070366533856444, 53.134450611713014 ], [ -6.070372132871786, 53.13443925266219 ], [ -6.070379174089251, 53.134428365310782 ], [ -6.070391282905153, 53.134413169811147 ], [ -6.070406744327268, 53.134402923399399 ], [ -6.070422136682727, 53.134392958467558 ], [ -6.070440767471404, 53.134382822211847 ], [ -6.070455912297247, 53.134377358753753 ], [ -6.070474818817742, 53.134372057357155 ], [ -6.070490105607389, 53.134368592553116 ], [ -6.070508709944146, 53.134367227138782 ], [ -6.070523350748052, 53.134369537868281 ], [ -6.070542950670943, 53.134376588635973 ], [ -6.070558061115257, 53.134383868909893 ], [ -6.070566766540814, 53.134390814923705 ], [ -6.070575529129028, 53.13440245923249 ], [ -6.070579180354538, 53.13441403817118 ], [ -6.070581144696055, 53.134422464687503 ], [ -6.070581967252213, 53.13443366164018 ], [ -6.070581306819313, 53.134443851585736 ], [ -6.070581307512839, 53.13444400155862 ], [ -6.070581328997148, 53.134444150974467 ], [ -6.070581371122612, 53.134444298792687 ], [ -6.070585569380109, 53.134456059247498 ], [ -6.07058563263608, 53.134456205985423 ], [ -6.070585716230456, 53.134456348995251 ], [ -6.070592897949243, 53.134467155202756 ], [ -6.070593030501908, 53.134467327606146 ], [ -6.070593192571499, 53.134467490632773 ], [ -6.070604425692982, 53.134477542787906 ], [ -6.070604581497688, 53.13447766978782 ], [ -6.070604755229718, 53.1344777880769 ], [ -6.070624981570869, 53.134490397468795 ], [ -6.070625071211028, 53.134490451037131 ], [ -6.070643953704647, 53.134501267589357 ], [ -6.070659580467433, 53.134513624429985 ], [ -6.070665847665445, 53.134525240891399 ], [ -6.070666397106187, 53.134541283720225 ], [ -6.070663181664152, 53.134553650870963 ], [ -6.070655490725822, 53.134565660160128 ], [ -6.070655474938169, 53.134565685374255 ], [ -6.070645586978526, 53.134581843467117 ], [ -6.070634243191671, 53.134592894685078 ], [ -6.070619384293875, 53.134605879703997 ], [ -6.070603760706891, 53.134615655055448 ], [ -6.070581858755752, 53.134627135949302 ], [ -6.070557515291944, 53.134638892502387 ], [ -6.070543789528848, 53.134641241764868 ], [ -6.070524148202168, 53.134642672183013 ], [ -6.070500065426813, 53.13464381220664 ], [ -6.070483804094463, 53.134641370368072 ], [ -6.070471677333583, 53.134637000958186 ], [ -6.07045553279717, 53.13463047920898 ], [ -6.070443302334071, 53.134623229553888 ] ] ] ] } }
]
}
