{
"type": "FeatureCollection",
"name": "H14_green_inset020",
"crs": { "type": "name", "properties": { "name": "urn:ogc:def:crs:OGC:1.3:CRS84" } },
"features": [
{ "type": "Feature", "properties": { "fid": 14, "Name": "14-green", "description": null, "timestamp": null, "begin": null, "end": null, "altitudeMode": null, "tessellate": -1, "extrude": 0, "visibility": -1, "drawOrder": null, "icon": null }, "geometry": { "type": "MultiPolygon", "coordinates": [ [ [ [ -6.073547436762321, 53.136344444864832 ], [ -6.073543817614153, 53.136353760817599 ], [ -6.073530416467263, 53.136365072191651 ], [ -6.073509260186658, 53.136374901921265 ], [ -6.073495211039971, 53.136380106037535 ], [ -6.073479667196494, 53.136382424006747 ], [ -6.07345463522624, 53.136382783574561 ], [ -6.073454629241057, 53.136382783664139 ], [ -6.073437631073604, 53.136383048321129 ], [ -6.073422574728692, 53.136380916167106 ], [ -6.073422322641151, 53.136380887276211 ], [ -6.073422067361304, 53.136380871498339 ], [ -6.073400323597271, 53.136380093009656 ], [ -6.073378547072777, 53.136378987979406 ], [ -6.073378208698012, 53.13637898237922 ], [ -6.073357878086966, 53.136379338917344 ], [ -6.073357744925668, 53.13637934304225 ], [ -6.073339123713343, 53.136380170709089 ], [ -6.073304878104761, 53.136378538485069 ], [ -6.073304537020777, 53.136378533976448 ], [ -6.073304197305091, 53.136378552876465 ], [ -6.0732775515448, 53.136380964248907 ], [ -6.073250473802595, 53.136379710925723 ], [ -6.073226660048102, 53.136377385769691 ], [ -6.073196619190706, 53.136369248383239 ], [ -6.073178179553354, 53.136362875804942 ], [ -6.073167440841897, 53.136352560271291 ], [ -6.073161821813992, 53.136339733018282 ], [ -6.073158228143673, 53.136326087719411 ], [ -6.073158224044791, 53.136326072574569 ], [ -6.073154032202888, 53.136310990617972 ], [ -6.073154020475336, 53.136310951137624 ], [ -6.073149371380103, 53.136296249711343 ], [ -6.073149355622729, 53.136296203233876 ], [ -6.07314139806075, 53.136274218225907 ], [ -6.073141364150044, 53.136274134296784 ], [ -6.073135043188344, 53.136259981414518 ], [ -6.073131243403253, 53.136244958836819 ], [ -6.073130780940867, 53.13623023043327 ], [ -6.073135624538812, 53.136215208263827 ], [ -6.073145080276745, 53.136203102877978 ], [ -6.07315537203995, 53.136195055537769 ], [ -6.073170970998429, 53.136187018405359 ], [ -6.073186810799083, 53.136181816534993 ], [ -6.073204533561541, 53.136179581809635 ], [ -6.073224225263848, 53.13617819966408 ], [ -6.07324621088738, 53.13618193461582 ], [ -6.073262734737628, 53.136186408784006 ], [ -6.073281886740812, 53.136192999793501 ], [ -6.073302123411815, 53.136201803327687 ], [ -6.073314975382226, 53.136211513220431 ], [ -6.073315007375908, 53.136211536974756 ], [ -6.073326460542219, 53.136219894251845 ], [ -6.073326543664335, 53.136219952336248 ], [ -6.073340765791772, 53.136229472221729 ], [ -6.073340797928202, 53.136229493390879 ], [ -6.073349993226751, 53.136235454406602 ], [ -6.073358622344891, 53.136241137446412 ], [ -6.07335883599219, 53.136241264662985 ], [ -6.073359069815094, 53.136241378325359 ], [ -6.073370685773467, 53.136246465895276 ], [ -6.073370957872698, 53.13624657197991 ], [ -6.073384921248612, 53.136251389937797 ], [ -6.073385200000137, 53.136251474795138 ], [ -6.073385491960855, 53.136251541686505 ], [ -6.073405324517871, 53.13625538457098 ], [ -6.073405394437985, 53.13625539755305 ], [ -6.073431983429302, 53.136260120687012 ], [ -6.0734491625606, 53.136263378396706 ], [ -6.073470878835431, 53.136267765922618 ], [ -6.073490268918239, 53.13627457300872 ], [ -6.073508786188873, 53.136281492948257 ], [ -6.07352457091377, 53.136291606804917 ], [ -6.073533970863349, 53.136299141685591 ], [ -6.073541082278694, 53.136307696018868 ], [ -6.073548475380634, 53.136321970577704 ], [ -6.073549841940615, 53.136331702694655 ], [ -6.073547436762321, 53.136344444864832 ] ] ] ] } }
]
}
