{
"type": "FeatureCollection",
"name": "H15_green_inset020",
"crs": { "type": "name", "properties": { "name": "urn:ogc:def:crs:OGC:1.3:CRS84" } },
"features": [
{ "type": "Feature", "properties": { "fid": 15, "Name": "15-green", "description": null, "timestamp": null, "begin": null, "end": null, "altitudeMode": null, "tessellate": -1, "extrude": 0, "visibility": -1, "drawOrder": null, "icon": null }, "geometry": { "type": "MultiPolygon", "coordinates": [ [ [ [ -6.070798393870766, 53.133468108148307 ], [ -6.070799131524319, 53.133455101872073 ], [ -6.070801537216602, 53.133438782638549 ], [ -6.070804006827144, 53.133425058169294 ], [ -6.070811122660119, 53.133407253691537 ], [ -6.070816922691863, 53.133394316795275 ], [ -6.070822375801665, 53.133384527919802 ], [ -6.070832922370115, 53.133376629324367 ], [ -6.070847685062048, 53.133368417694037 ], [ -6.070847805864974, 53.133368346581364 ], [ -6.070867147985386, 53.133356297628261 ], [ -6.07086720180463, 53.133356263207915 ], [ -6.070884146739258, 53.133345136448774 ], [ -6.070884325492901, 53.133345007456441 ], [ -6.07089668929875, 53.133335186563322 ], [ -6.070896909422006, 53.133334984888663 ], [ -6.070909352772329, 53.133321721727647 ], [ -6.070923394767755, 53.133308815599456 ], [ -6.070934716626137, 53.133299146102743 ], [ -6.070952413745068, 53.133290022951059 ], [ -6.070975126139034, 53.133282005037763 ], [ -6.071003486559523, 53.133277047492193 ], [ -6.071029008718351, 53.133276676772979 ], [ -6.071052962745741, 53.133279579829185 ], [ -6.071071310620519, 53.133284233632232 ], [ -6.071090463530849, 53.133291791725284 ], [ -6.071108019334897, 53.133306861969452 ], [ -6.071118570604038, 53.133318184323286 ], [ -6.071127453696469, 53.133327979186056 ], [ -6.071136295111779, 53.133341490808213 ], [ -6.071141286763446, 53.133351985628146 ], [ -6.071143083520784, 53.133361777401547 ], [ -6.071138539804083, 53.133377220407986 ], [ -6.071132025019357, 53.133389073198423 ], [ -6.071132007818539, 53.133389105513643 ], [ -6.071126500867438, 53.133399798037146 ], [ -6.071113680289861, 53.133414792755048 ], [ -6.071095132590369, 53.133431727798893 ], [ -6.071095093009077, 53.133431764922399 ], [ -6.071081468213875, 53.133444895510777 ], [ -6.071081427603449, 53.133444935815334 ], [ -6.071070804275669, 53.133455797967166 ], [ -6.071070686032424, 53.13345593141711 ], [ -6.071070586862553, 53.13345607037305 ], [ -6.071061230892345, 53.133470868653752 ], [ -6.071061174927618, 53.133470965384625 ], [ -6.071055410745543, 53.133481925091189 ], [ -6.07104864673301, 53.133494483496492 ], [ -6.071040913915524, 53.133504799213895 ], [ -6.07102855314114, 53.133517449326362 ], [ -6.071014743238987, 53.133526995759695 ], [ -6.07099780026903, 53.133534158026158 ], [ -6.070981634457923, 53.133537213199645 ], [ -6.070960212574962, 53.133540391759851 ], [ -6.070941059087833, 53.133540594199289 ], [ -6.070919236123576, 53.13353979970416 ], [ -6.070897857758826, 53.133538230071117 ], [ -6.070877291668692, 53.133531690626974 ], [ -6.070859504796617, 53.133525128942757 ], [ -6.07084008309808, 53.133515283894816 ], [ -6.070823500972518, 53.133505299083552 ], [ -6.070813107242882, 53.133491524754504 ], [ -6.070813104372848, 53.133491520962664 ], [ -6.070804793072257, 53.133480573886288 ], [ -6.070798393870766, 53.133468108148307 ] ] ] ] } }
]
}
