{
"type": "FeatureCollection",
"name": "H17_green_inset020",
"crs": { "type": "name", "properties": { "name": "urn:ogc:def:crs:OGC:1.3:CRS84" } },
"features": [
{ "type": "Feature", "properties": { "fid": 17, "Name": "17-green", "description": null, "timestamp": null, "begin": null, "end": null, "altitudeMode": null, "tessellate": -1, "extrude": 0, "visibility": -1, "drawOrder": null, "icon": null }, "geometry": { "type": "MultiPolygon", "coordinates": [ [ [ [ -6.073906978444027, 53.135710345889365 ], [ -6.073929091276327, 53.135702409071797 ], [ -6.073929111171805, 53.135702401867633 ], [ -6.073948365884597, 53.135695368274057 ], [ -6.073964897970228, 53.135695230585689 ], [ -6.073992665786676, 53.135698449461565 ], [ -6.074011645549198, 53.135706367296223 ], [ -6.074029420628348, 53.135718148913604 ], [ -6.074038971975131, 53.135732052540448 ], [ -6.074043943864888, 53.135743850021136 ], [ -6.074045091409269, 53.135760797987281 ], [ -6.074045125098545, 53.135761003606163 ], [ -6.074048358109238, 53.135773387115897 ], [ -6.074047537538631, 53.13578720361874 ], [ -6.07404357915332, 53.135804798799875 ], [ -6.074033178881383, 53.135820505448834 ], [ -6.074023305010558, 53.135832378264425 ], [ -6.074010600022018, 53.135844806357667 ], [ -6.073996568979629, 53.135853602086605 ], [ -6.073977442118491, 53.135862890101137 ], [ -6.073961828963763, 53.135867173079212 ], [ -6.073946732866475, 53.135868833395804 ], [ -6.073946498314877, 53.135868865104364 ], [ -6.073926306920568, 53.135872112953791 ], [ -6.073901711557101, 53.135875117632075 ], [ -6.073884805885193, 53.135875369109201 ], [ -6.073866400322047, 53.135875374252308 ], [ -6.073846186741818, 53.1358750918819 ], [ -6.073824259019686, 53.135874535925907 ], [ -6.073823980612527, 53.135874536673484 ], [ -6.073823703529357, 53.135874552999518 ], [ -6.073823430175275, 53.13587458476232 ], [ -6.073808716749925, 53.135876726338878 ], [ -6.073787514571792, 53.13587977373264 ], [ -6.073787199389295, 53.135879830224063 ], [ -6.073786896438443, 53.135879907202295 ], [ -6.073766905930627, 53.135885786127453 ], [ -6.073766529050615, 53.135885918281105 ], [ -6.073745645807147, 53.135894527629482 ], [ -6.073727444054466, 53.135901619041611 ], [ -6.073706537928117, 53.135907654866436 ], [ -6.073689933210108, 53.135912116742084 ], [ -6.073674088119614, 53.135911236743581 ], [ -6.073674076425263, 53.135911236108029 ], [ -6.073655225267284, 53.135910234066088 ], [ -6.07364202106972, 53.135908346017295 ], [ -6.073627119464811, 53.135903114480676 ], [ -6.073608876701574, 53.135896168092778 ], [ -6.073594484623607, 53.135889320962733 ], [ -6.073582860284863, 53.135882718022366 ], [ -6.073575700795583, 53.135874340357709 ], [ -6.073567597355641, 53.135863840692146 ], [ -6.073564098126713, 53.135853351911685 ], [ -6.073560274311332, 53.135840711132118 ], [ -6.073557178308167, 53.135828491126802 ], [ -6.073560108822749, 53.135813927380752 ], [ -6.073564710244201, 53.135801612447885 ], [ -6.07357375676483, 53.13578889756716 ], [ -6.073582451669289, 53.13577736700617 ], [ -6.073595815122385, 53.135763572376177 ], [ -6.07360908383509, 53.135752626443001 ], [ -6.073622795178574, 53.135744851275064 ], [ -6.073640629957866, 53.135737255229586 ], [ -6.073661865721027, 53.13573157164965 ], [ -6.073687665045417, 53.135728176116245 ], [ -6.073714560414582, 53.135727487611682 ], [ -6.073743979874429, 53.135727126130938 ], [ -6.073770142331242, 53.135727336183933 ], [ -6.073770395655695, 53.135727331754481 ], [ -6.073790240796035, 53.135726477175929 ], [ -6.073808502572714, 53.13572667204155 ], [ -6.073808806977092, 53.13572666595406 ], [ -6.073809108769991, 53.135726641264355 ], [ -6.073841615430799, 53.135722958802454 ], [ -6.073841684777069, 53.135722950434449 ], [ -6.073869691467935, 53.135719363013905 ], [ -6.073869995901561, 53.135719313794468 ], [ -6.073887492998811, 53.135715880395466 ], [ -6.073887843474517, 53.135715796564881 ], [ -6.073906724401775, 53.135710427357949 ], [ -6.073906978444027, 53.135710345889365 ] ] ] ] } }
]
}
