{
  "type": "FeatureCollection",
  "features": [
    {
      "type": "Feature",
      "properties": { "name": "1-fairway" },
      "geometry": {
        "type": "Polygon",
        "coordinates": [[
          [-6.0739725, 53.1399805],
          [-6.0746505, 53.1398043],
          [-6.0766464, 53.1403230],
          [-6.0759684, 53.1404992],
          [-6.0739725, 53.1399805]
        ]]
      }
    },
    {
      "type": "Feature",
      "properties": { "name": "1-bunker-1" },
      "geometry": {
        "type": "Polygon",
        "coordinates": [[
          [-6.0754595, 53.1403020],
          [-6.0751595, 53.1403020],
          [-6.0751595, 53.1400020],
          [-6.0754595, 53.1400020],
          [-6.0754595, 53.1403020]
        ]]
      }
    }
  ]
}