<?xml version="1.0" encoding="UTF-8"?> <kml xmlns="http://www.opengis.net/kml/2.2" xmlns:gx="http://www.google.com/kml/ext/2.2" xmlns:kml="http://www.opengis.net/kml/2.2" xmlns:atom="http://www.w3.org/2005/Atom"> <Document id="KmlFile"> <gx:CascadingStyle kml:id="__managed_style_2B2B659BB73DBC9A9DE7"> <Style> <IconStyle> <scale>1.2</scale> <Icon> <href>https://earth.google.com/earth/document/icon?color=1976d2&amp;id=2000&amp;scale=4</href> </Icon> <hotSpot x="64" y="128" xunits="pixels" yunits="insetPixels"/> </IconStyle> <LabelStyle> </LabelStyle> <LineStyle> <color>ff2dc0fb</color> <width>3</width> </LineStyle> <PolyStyle> <color>40ffffff</color> </PolyStyle> <BalloonStyle> <displayMode>hide</displayMode> </BalloonStyle> </Style> </gx:CascadingStyle> <gx:CascadingStyle kml:id="__managed_style_13A9676E293DBC9A9DE7"> <Style> <IconStyle> <Icon> <href>https://earth.google.com/earth/document/icon?color=1976d2&amp;id=2000&amp;scale=4</href> </Icon> <hotSpot x="64" y="128" xunits="pixels" yunits="insetPixels"/> </IconStyle> <LabelStyle> </LabelStyle> <LineStyle> <color>ff2dc0fb</color> <width>2</width> </LineStyle> <PolyStyle> <color>40ffffff</color> </PolyStyle> <BalloonStyle> <displayMode>hide</displayMode> </BalloonStyle> </Style> </gx:CascadingStyle> <StyleMap id="__managed_style_06BF6F55B33DBC9A9DE7"> <Pair> <key>normal</key> <styleUrl>#__managed_style_13A9676E293DBC9A9DE7</styleUrl> </Pair> <Pair> <key>highlight</key> <styleUrl>#__managed_style_2B2B659BB73DBC9A9DE7</styleUrl> </Pair> </StyleMap> <Placemark id="03A570FDFE3DC0D29DBC"> <name>1-green</name> <LookAt> <longitude>-6.076400903561165</longitude> <latitude>53.14045737001194</latitude> <altitude>42.41986504644473</altitude> <heading>301.8288854910797</heading> <tilt>0</tilt> <gx:fovy>35</gx:fovy> <range>130.9083791295416</range> <altitudeMode>absolute</altitudeMode> </LookAt> <styleUrl>#__managed_style_06BF6F55B33DBC9A9DE7</styleUrl> <Polygon> <outerBoundaryIs> <LinearRing> <coordinates>-6.076295552319087,53.14035665306354,42.4827010534278 -6.076208572111105,53.14036853755255,42.48271505314755 -6.076137683935934,53.14041178385934,42.48268383218944 -6.076127453509176,53.14044105007421,42.48263595568541 -6.076166187514332,53.1404987031304,42.48264366961448 -6.076251218205391,53.14054668612134,42.48272520637153 -6.076389745914652,53.14056247924403,42.48278272583842 -6.076461935811776,53.14054921473215,42.48277258079521 -6.076579737190013,53.14054366710486,42.48267035546945 -6.07664320698114,53.14050543642398,42.48262791557053 -6.076657929420786,53.14046162125184,42.48255959828555 -6.076644212716386,53.14040986518134,42.48257005852504 -6.076607212711698,53.14036665792948,42.48265004381862 -6.076536531390494,53.14034375971434,42.48272047806124 -6.07639535359781,53.14033732688828,42.48276662760205 -6.076295552319087,53.14035665306354,42.4827010534278 </coordinates> </LinearRing> </outerBoundaryIs> </Polygon> </Placemark> </Document> </kml>