{
"type": "FeatureCollection",
"name": "1-green",
"crs": { "type": "name", "properties": { "name": "urn:ogc:def:crs:OGC:1.3:CRS84" } },
"features": [
{ "type": "Feature", "properties": { "id": "03A570FDFE3DC0D29DBC", "Name": "1-green", "description": null, "timestamp": null, "begin": null, "end": null, "altitudeMode": null, "tessellate": -1, "extrude": 0, "visibility": -1, "drawOrder": null, "icon": null }, "geometry": { "type": "Polygon", "coordinates": [ [ [ -6.076614670843671, 53.140477724502666, 0.0 ], [ -6.076617803197367, 53.140458720261897, 0.0 ], [ -6.076616614686328, 53.140438678974327, 0.0 ], [ -6.076616282525698, 53.140418800901308, 0.0 ], [ -6.076604250207756, 53.140399972742017, 0.0 ], [ -6.076583723474553, 53.140385482704559, 0.0 ], [ -6.076559210275643, 53.140379704567813, 0.0 ], [ -6.076527488173477, 53.140374489455432, 0.0 ], [ -6.076502954029581, 53.140375279695519, 0.0 ], [ -6.07646612198094, 53.140374780230303, 0.0 ], [ -6.07643693368506, 53.140374281290534, 0.0 ], [ -6.076408654170869, 53.140371147249162, 0.0 ], [ -6.07638045666487, 53.140362973625507, 0.0 ], [ -6.076349698308368, 53.140352487666142, 0.0 ], [ -6.076326620302211, 53.140344656457323, 0.0 ], [ -6.076299819925904, 53.140336926297913, 0.0 ], [ -6.076275065015802, 53.140335365389141, 0.0 ], [ -6.076250572389974, 53.140336369208804, 0.0 ], [ -6.076225370759851, 53.140339559330137, 0.0 ], [ -6.076197226606304, 53.140350247397578, 0.0 ], [ -6.076189039841408, 53.140356579759462, 0.0 ], [ -6.076174175937171, 53.14037280776305, 0.0 ], [ -6.07616572398796, 53.1403863432867, 0.0 ], [ -6.076162934537269, 53.14040067450015, 0.0 ], [ -6.076162565183961, 53.140412538166068, 0.0 ], [ -6.076165768169329, 53.140425840560681, 0.0 ], [ -6.07617829663902, 53.140439383743583, 0.0 ], [ -6.076190759015111, 53.140452967022391, 0.0 ], [ -6.076205464440508, 53.140465371129551, 0.0 ], [ -6.076226269126162, 53.140476213536957, 0.0 ], [ -6.07625418828132, 53.140484609797113, 0.0 ], [ -6.076279848709572, 53.140488136580068, 0.0 ], [ -6.076303783043917, 53.140491787184942, 0.0 ], [ -6.076326715232465, 53.14049735027514, 0.0 ], [ -6.076351659047928, 53.140508906819647, 0.0 ], [ -6.076377008565034, 53.140525310080612, 0.0 ], [ -6.076395759316905, 53.140541831451138, 0.0 ], [ -6.076412073177907, 53.14055358443521, 0.0 ], [ -6.076435530825901, 53.140563244207122, 0.0 ], [ -6.076461045166102, 53.140571595141431, 0.0 ], [ -6.076494598456408, 53.140574660195767, 0.0 ], [ -6.076524663095926, 53.140573049282807, 0.0 ], [ -6.076548737331301, 53.140568950051367, 0.0 ], [ -6.076573529883173, 53.140561884606157, 0.0 ], [ -6.076594318560212, 53.140549840251978, 0.0 ], [ -6.07660612503587, 53.140539422226077, 0.0 ], [ -6.076614517883407, 53.14052368961913, 0.0 ], [ -6.076616299698312, 53.140509638493967, 0.0 ], [ -6.076615547169273, 53.140497094459143, 0.0 ], [ -6.076614670843671, 53.140477724502666, 0.0 ] ] ] } }
]
}
